{
 "type": "FeatureCollection",
 "features": [
  {
   "type": "Feature",
   "properties": {
    "name": "Atlanta",
    "geoid": "1304000"
   },
   "geometry": {
    "type": "MultiPolygon",
    "coordinates": [
     [
      [
       [
        -84.55085295482296,
        33.72259495654596
       ],
       [
        -84.55083597069597,
        33.72837511748912
       ],
       [
        -84.53984410500611,
        33.72834095775796
       ],
       [
        -84.54110093040293,
        33.73251895564596
       ],
       [
        -84.54109204639805,
        33.73345392898693
       ],
       [
        -84.5382880976801,
        33.73393288186088
       ],
       [
        -84.53545592918194,
        33.73469204008204
       ],
       [
        -84.5297341074481,
        33.73348211673712
       ],
       [
        -84.52684001221002,
        33.73221892332192
       ],
       [
        -84.52725808302809,
        33.73011391946892
       ],
       [
        -84.52725102808303,
        33.72624097036897
       ],
       [
        -84.52416488156288,
        33.72584801402102
       ],
       [
        -84.52419388522588,
        33.72423008493609
       ],
       [
        -84.52299506715507,
        33.724232951486954
       ],
       [
        -84.52280406105007,
        33.725833920145924
       ],
       [
        -84.52286912332113,
        33.722088054801056
       ],
       [
        -84.51911197313797,
        33.7221031041931
       ],
       [
        -84.51867587301588,
        33.72062706937607
       ],
       [
        -84.51844697924298,
        33.72149611204711
       ],
       [
        -84.51755701098901,
        33.72211003169103
       ],
       [
        -84.51386100366301,
        33.72206297248098
       ],
       [
        -84.5140831037851,
        33.71989394899195
       ],
       [
        -84.50788102319902,
        33.71934500450101
       ],
       [
        -84.50821208302808,
        33.717024053816054
       ],
       [
        -84.51474391697192,
        33.71735800699201
       ],
       [
        -84.5153279096459,
        33.71531296182796
       ],
       [
        -84.51627196581197,
        33.71386511476112
       ],
       [
        -84.51229611233211,
        33.71378102926903
       ],
       [
        -84.51237894261294,
        33.713179053587055
       ],
       [
        -84.50601303052503,
        33.71301303251603
       ],
       [
        -84.50594012942614,
        33.716310999288
       ],
       [
        -84.5054421025641,
        33.71675197036297
       ],
       [
        -84.50398199023199,
        33.71630908825409
       ],
       [
        -84.50361487179487,
        33.7169038975589
       ],
       [
        -84.50511600732601,
        33.71757992580493
       ],
       [
        -84.50595397802198,
        33.71702094838595
       ],
       [
        -84.50573788766789,
        33.72310400820401
       ],
       [
        -84.50076807081807,
        33.72301992271193
       ],
       [
        -84.49643711843711,
        33.72159906899907
       ],
       [
        -84.49634096214896,
        33.72499210970811
       ],
       [
        -84.50059404884004,
        33.724994020742024
       ],
       [
        -84.5008090940171,
        33.72388896538297
       ],
       [
        -84.50190496214896,
        33.72388800986601
       ],
       [
        -84.5020991037851,
        33.725181063186064
       ],
       [
        -84.50182004151404,
        33.73155507791708
       ],
       [
        -84.50579302075703,
        33.731577054807055
       ],
       [
        -84.50566211233212,
        33.73935997928898
       ],
       [
        -84.50840988278388,
        33.73963110722511
       ],
       [
        -84.50914098412699,
        33.73703902860403
       ],
       [
        -84.50867901587301,
        33.73375706674107
       ],
       [
        -84.50879503052504,
        33.732282942957944
       ],
       [
        -84.50978193894994,
        33.731132022785026
       ],
       [
        -84.51311108913309,
        33.72948805586306
       ],
       [
        -84.51422002197802,
        33.727910975127976
       ],
       [
        -84.51433891086691,
        33.726481999521
       ],
       [
        -84.517204002442,
        33.72958002437002
       ],
       [
        -84.51763409279609,
        33.73138690693291
       ],
       [
        -84.52111505494506,
        33.731463109410114
       ],
       [
        -84.52140509157509,
        33.73005611069311
       ],
       [
        -84.52372695238095,
        33.73004607776508
       ],
       [
        -84.52449907692308,
        33.730574000883
       ],
       [
        -84.52421609523809,
        33.73229488691989
       ],
       [
        -84.52579901587302,
        33.73337008237409
       ],
       [
        -84.52541412942612,
        33.737710995903
       ],
       [
        -84.52700697924298,
        33.73844793835494
       ],
       [
        -84.53556305982906,
        33.73853202384703
       ],
       [
        -84.53533207570207,
        33.74445503457503
       ],
       [
        -84.53752302808303,
        33.744484894479896
       ],
       [
        -84.53745091086691,
        33.7463600965051
       ],
       [
        -84.53817391208791,
        33.746431999156
       ],
       [
        -84.54034396092796,
        33.748240076115074
       ],
       [
        -84.53957497191698,
        33.74924695210695
       ],
       [
        -84.53808794627595,
        33.74921900323601
       ],
       [
        -84.53611491330891,
        33.75114293662594
       ],
       [
        -84.53496495726496,
        33.75125807641908
       ],
       [
        -84.53500807081807,
        33.757838960570965
       ],
       [
        -84.52489702808303,
        33.75773003163803
       ],
       [
        -84.52481498168498,
        33.762580952341956
       ],
       [
        -84.51529394139195,
        33.76247895090695
       ],
       [
        -84.51517296214897,
        33.77216502628503
       ],
       [
        -84.51543112087911,
        33.774001052115054
       ],
       [
        -84.51440501831502,
        33.77400511306212
       ],
       [
        -84.51162510866911,
        33.77856698988699
       ],
       [
        -84.50999593894994,
        33.78045509139109
       ],
       [
        -84.50689202442003,
        33.78344992040892
       ],
       [
        -84.5136780976801,
        33.783437976446976
       ],
       [
        -84.51519987545788,
        33.783250934002936
       ],
       [
        -84.51519203663004,
        33.78626702327303
       ],
       [
        -84.51747209035409,
        33.78923103686904
       ],
       [
        -84.51151797802198,
        33.79254691958392
       ],
       [
        -84.509552,
        33.79381704049704
       ],
       [
        -84.50636603907203,
        33.79684292381592
       ],
       [
        -84.50342203663004,
        33.79893598370698
       ],
       [
        -84.50107404639805,
        33.80188303687704
       ],
       [
        -84.50049397313798,
        33.80324393190093
       ],
       [
        -84.49896801465202,
        33.80461103778504
       ],
       [
        -84.49533001465201,
        33.808403962339966
       ],
       [
        -84.49532792429792,
        33.808664101831106
       ],
       [
        -84.49150597313798,
        33.81208294149794
       ],
       [
        -84.48967194871796,
        33.81302293130293
       ],
       [
        -84.485775006105,
        33.813832015285016
       ],
       [
        -84.48355687912088,
        33.8150170951891
       ],
       [
        -84.48076103052503,
        33.817053062942065
       ],
       [
        -84.47788209035409,
        33.82036297367598
       ],
       [
        -84.4718441025641,
        33.82563097753098
       ],
       [
        -84.46997192918192,
        33.8269268974019
       ],
       [
        -84.46676297435897,
        33.82763995192995
       ],
       [
        -84.46428198534798,
        33.82736595744296
       ],
       [
        -84.46149711111111,
        33.82633208809709
       ],
       [
        -84.45907491330891,
        33.82471296461596
       ],
       [
        -84.4579239120879,
        33.824590897324896
       ],
       [
        -84.45638305982907,
        33.825319001245
       ],
       [
        -84.45501701343102,
        33.82792302382803
       ],
       [
        -84.455786002442,
        33.830277895364894
       ],
       [
        -84.4586281001221,
        33.834405011975015
       ],
       [
        -84.45866206837607,
        33.8348638989929
       ],
       [
        -84.46042606593406,
        33.83834890820891
       ],
       [
        -84.46069598290597,
        33.83979890518891
       ],
       [
        -84.46045297924297,
        33.84227703841304
       ],
       [
        -84.4587799120879,
        33.84604392513093
       ],
       [
        -84.45871694017094,
        33.84810091425692
       ],
       [
        -84.45911306227106,
        33.849615886389884
       ],
       [
        -84.46017287179487,
        33.851585923472925
       ],
       [
        -84.46015902319903,
        33.852754998468
       ],
       [
        -84.45958104029305,
        33.85371911507612
       ],
       [
        -84.45594800488401,
        33.85753903298503
       ],
       [
        -84.45478602930403,
        33.85811807626008
       ],
       [
        -84.45423208547008,
        33.86019011477811
       ],
       [
        -84.45508704029304,
        33.862231098995096
       ],
       [
        -84.45589888156287,
        33.86312307407307
       ],
       [
        -84.45617611477411,
        33.864490896594894
       ],
       [
        -84.45568409768009,
        33.86567502098202
       ],
       [
        -84.45431308669109,
        33.86738611297011
       ],
       [
        -84.45204296214897,
        33.86921210587211
       ],
       [
        -84.4517341123321,
        33.87014301826602
       ],
       [
        -84.44985697435898,
        33.87280508850409
       ],
       [
        -84.44616906715507,
        33.87551899553699
       ],
       [
        -84.444340007326,
        33.876530887992885
       ],
       [
        -84.44330606593407,
        33.879251005886005
       ],
       [
        -84.44021103540904,
        33.879079968350965
       ],
       [
        -84.4394038974359,
        33.87989000785001
       ],
       [
        -84.43801799267399,
        33.879251961402964
       ],
       [
        -84.43615705494506,
        33.88038401011601
       ],
       [
        -84.4361709035409,
        33.87847799266899
       ],
       [
        -84.42993093528693,
        33.878473931721935
       ],
       [
        -84.42923197313797,
        33.88118688323788
       ],
       [
        -84.42769686935287,
        33.88041004795305
       ],
       [
        -84.42798899633699,
        33.87846294327694
       ],
       [
        -84.4248809010989,
        33.87844693836794
       ],
       [
        -84.42459896459096,
        33.87915999289599
       ],
       [
        -84.4232208986569,
        33.87843499440599
       ],
       [
        -84.4068630940171,
        33.878305044100046
       ],
       [
        -84.40702692551892,
        33.88230292704193
       ],
       [
        -84.40515004884004,
        33.882338042290044
       ],
       [
        -84.40512209035408,
        33.8852409028009
       ],
       [
        -84.40428411965812,
        33.88540907378508
       ],
       [
        -84.40330896947496,
        33.886425027188025
       ],
       [
        -84.4018370989011,
        33.88676304131104
       ],
       [
        -84.40113787545788,
        33.88592003647704
       ],
       [
        -84.4011329108669,
        33.882295999544
       ],
       [
        -84.40040207081807,
        33.88124994735695
       ],
       [
        -84.39920011721611,
        33.881307995011994
       ],
       [
        -84.39917503296704,
        33.87947101366501
       ],
       [
        -84.397224993895,
        33.87946002522003
       ],
       [
        -84.39724694261294,
        33.87821904757405
       ],
       [
        -84.3886919072039,
        33.87814905595705
       ],
       [
        -84.38917895970695,
        33.878929952188955
       ],
       [
        -84.39125206837606,
        33.88084003058303
       ],
       [
        -84.39035609035409,
        33.881220087452085
       ],
       [
        -84.39121992918193,
        33.882374113055114
       ],
       [
        -84.39264711843711,
        33.8834419032529
       ],
       [
        -84.3954818998779,
        33.886335925231926
       ],
       [
        -84.39475288888889,
        33.886823
       ],
       [
        -84.39345399511599,
        33.885827112453114
       ],
       [
        -84.39227007081807,
        33.88556888399588
       ],
       [
        -84.39225988034188,
        33.88490193316093
       ],
       [
        -84.38968299633699,
        33.883328913372914
       ],
       [
        -84.38842695482295,
        33.88184404002404
       ],
       [
        -84.38729894749694,
        33.881055977414974
       ],
       [
        -84.3873661001221,
        33.878305999617
       ],
       [
        -84.38416106471306,
        33.87812899010099
       ],
       [
        -84.37352795604396,
        33.87813305104805
       ],
       [
        -84.36798407570207,
        33.877910893355896
       ],
       [
        -84.367751001221,
        33.879109111618114
       ],
       [
        -84.36631205372404,
        33.88003405203105
       ],
       [
        -84.36409497191697,
        33.88008899425599
       ],
       [
        -84.36281201709402,
        33.87869298398398
       ],
       [
        -84.36307801465202,
        33.878365958305956
       ],
       [
        -84.36206001221001,
        33.87693005520106
       ],
       [
        -84.35984397557998,
        33.87703611758312
       ],
       [
        -84.35983195604395,
        33.87804203805804
       ],
       [
        -84.35792006593407,
        33.87801193927394
       ],
       [
        -84.35817012454213,
        33.87847894818595
       ],
       [
        -84.35551511355311,
        33.87841492854993
       ],
       [
        -84.35531705250305,
        33.88047406758907
       ],
       [
        -84.35389587301587,
        33.88196109085109
       ],
       [
        -84.34808991452991,
        33.88203705444906
       ],
       [
        -84.34823597802198,
        33.87242097068797
       ],
       [
        -84.34811708913308,
        33.86228795225395
       ],
       [
        -84.34825505250305,
        33.857450886545884
       ],
       [
        -84.34822709401709,
        33.8485469017959
       ],
       [
        -84.34800499389499,
        33.84502008871309
       ],
       [
        -84.34841496459096,
        33.84142806159806
       ],
       [
        -84.3483499023199,
        33.83738288056688
       ],
       [
        -84.34852392429792,
        33.830075086891085
       ],
       [
        -84.34852496947497,
        33.82440696031096
       ],
       [
        -84.34832507936507,
        33.82010402858103
       ],
       [
        -84.34842489377289,
        33.817103944219944
       ],
       [
        -84.348225003663,
        33.81250408559609
       ],
       [
        -84.34842593894993,
        33.80970298764099
       ],
       [
        -84.348225003663,
        33.80900402698803
       ],
       [
        -84.34815994139194,
        33.804735016110016
       ],
       [
        -84.33773299389499,
        33.80448705946006
       ],
       [
        -84.33832195115994,
        33.803785948893946
       ],
       [
        -84.33810011233211,
        33.80294294405994
       ],
       [
        -84.33379607326007,
        33.80387003438604
       ],
       [
        -84.33510803174603,
        33.805079002214
       ],
       [
        -84.33387001953602,
        33.806721058102056
       ],
       [
        -84.33281491330891,
        33.80726188069888
       ],
       [
        -84.33026311355312,
        33.80766510885411
       ],
       [
        -84.33115804639804,
        33.809618902148905
       ],
       [
        -84.32966997557998,
        33.80982792148292
       ],
       [
        -84.32967598534798,
        33.808490914382915
       ],
       [
        -84.3284479023199,
        33.80647405696906
       ],
       [
        -84.32852498412699,
        33.80453292427392
       ],
       [
        -84.32773404639804,
        33.80353010922911
       ],
       [
        -84.32503696703296,
        33.803392992545994
       ],
       [
        -84.325275006105,
        33.805846998967
       ],
       [
        -84.32204697680098,
        33.8055011018291
       ],
       [
        -84.32297587789988,
        33.80313906391506
       ],
       [
        -84.3228899120879,
        33.7998571020521
       ],
       [
        -84.3241449084249,
        33.799128042615045
       ],
       [
        -84.32670297924298,
        33.80066594715495
       ],
       [
        -84.32771392673992,
        33.80080808030208
       ],
       [
        -84.32788794871794,
        33.80021398763499
       ],
       [
        -84.32674504761904,
        33.80039505809806
       ],
       [
        -84.32403908424908,
        33.798527022450024
       ],
       [
        -84.32250006105005,
        33.7990140972181
       ],
       [
        -84.32103811965811,
        33.798252072446076
       ],
       [
        -84.32104909401708,
        33.80147407562008
       ],
       [
        -84.32268610256409,
        33.8015380952561
       ],
       [
        -84.32265396336996,
        33.80334306678507
       ],
       [
        -84.32177993406593,
        33.80548294700695
       ],
       [
        -84.31805309401709,
        33.805127972457974
       ],
       [
        -84.31803297435897,
        33.80424794134194
       ],
       [
        -84.31573593650793,
        33.80424603030803
       ],
       [
        -84.31562096703296,
        33.80344196278996
       ],
       [
        -84.31163596825397,
        33.80344411270311
       ],
       [
        -84.31346894749694,
        33.8032081000151
       ],
       [
        -84.31341303052503,
        33.80054507426007
       ],
       [
        -84.31130804395603,
        33.80001094028194
       ],
       [
        -84.3091291111111,
        33.800842956670955
       ],
       [
        -84.30661101831501,
        33.798118061193065
       ],
       [
        -84.30728097680097,
        33.796229004172005
       ],
       [
        -84.30877688644688,
        33.79521400628601
       ],
       [
        -84.3102639120879,
        33.794974888167886
       ],
       [
        -84.31369392185591,
        33.79491110741111
       ],
       [
        -84.31630399023199,
        33.79522308369708
       ],
       [
        -84.3169951135531,
        33.7948951025021
       ],
       [
        -84.31754304761904,
        33.7934978978339
       ],
       [
        -84.31568811965812,
        33.79234888869489
       ],
       [
        -84.31446291086691,
        33.792042884389886
       ],
       [
        -84.31743408791208,
        33.79049900786901
       ],
       [
        -84.31758511599512,
        33.79125291074691
       ],
       [
        -84.31675289377289,
        33.79165398898899
       ],
       [
        -84.31782707448107,
        33.79231592335992
       ],
       [
        -84.31849494261294,
        33.79153502712803
       ],
       [
        -84.31767996581196,
        33.790336092228095
       ],
       [
        -84.31957905250304,
        33.789297923055926
       ],
       [
        -84.32348905982906,
        33.788259037246036
       ],
       [
        -84.32526612210012,
        33.78828005861906
       ],
       [
        -84.32665803663004,
        33.78884405250205
       ],
       [
        -84.32790205860806,
        33.79038291255891
       ],
       [
        -84.3290439145299,
        33.79129805892306
       ],
       [
        -84.32843692796092,
        33.79141988733489
       ],
       [
        -84.32870292551893,
        33.79318902697803
       ],
       [
        -84.32923988522587,
        33.7937448989669
       ],
       [
        -84.33071593650793,
        33.79369401768902
       ],
       [
        -84.33073109157509,
        33.796057966636965
       ],
       [
        -84.33617097680097,
        33.80110811262611
       ],
       [
        -84.33594312820513,
        33.8021180940481
       ],
       [
        -84.3375169035409,
        33.80155505568206
       ],
       [
        -84.33845599511599,
        33.80208393431693
       ],
       [
        -84.33842098168498,
        33.80049490961991
       ],
       [
        -84.34184707203907,
        33.79610908679409
       ],
       [
        -84.34091503540903,
        33.79610598136398
       ],
       [
        -84.3413561001221,
        33.79432203120803
       ],
       [
        -84.34049304517704,
        33.793625937105936
       ],
       [
        -84.33927907203906,
        33.79364910839211
       ],
       [
        -84.3392809010989,
        33.79296806368207
       ],
       [
        -84.34150111843711,
        33.79321697584898
       ],
       [
        -84.34392801953601,
        33.79482296097196
       ],
       [
        -84.34390789987789,
        33.79611888084288
       ],
       [
        -84.345096004884,
        33.79597292562793
       ],
       [
        -84.345303995116,
        33.79207202765703
       ],
       [
        -84.34494889621489,
        33.79132791882792
       ],
       [
        -84.3423639120879,
        33.79105392434092
       ],
       [
        -84.342291010989,
        33.78996606828707
       ],
       [
        -84.346062009768,
        33.78996989035489
       ],
       [
        -84.34773298656899,
        33.789452000165
       ],
       [
        -84.34805411721611,
        33.79042901625202
       ],
       [
        -84.34842593894993,
        33.78939108595909
       ],
       [
        -84.34842489377289,
        33.78580503082503
       ],
       [
        -84.34887902319902,
        33.782963084520084
       ],
       [
        -84.34724697924298,
        33.78305003656304
       ],
       [
        -84.34743903052502,
        33.78023795016295
       ],
       [
        -84.34519007081806,
        33.77932805914206
       ],
       [
        -84.33373806593406,
        33.779250901147904
       ],
       [
        -84.33289486935287,
        33.779705966097964
       ],
       [
        -84.333274007326,
        33.77859493875794
       ],
       [
        -84.33224999511599,
        33.778071076587075
       ],
       [
        -84.33184002442002,
        33.77924899011399
       ],
       [
        -84.330064007326,
        33.779253051061055
       ],
       [
        -84.33006296214896,
        33.772525017298015
       ],
       [
        -84.33141594383395,
        33.77164809161209
       ],
       [
        -84.328426998779,
        33.7714588992549
       ],
       [
        -84.32842908913308,
        33.767848000680004
       ],
       [
        -84.32679103540903,
        33.767841073182076
       ],
       [
        -84.32677509645909,
        33.76966706608407
       ],
       [
        -84.32296908424908,
        33.769626934371935
       ],
       [
        -84.32297404884004,
        33.7677588987239
       ],
       [
        -84.31978991697191,
        33.767558001284
       ],
       [
        -84.31907501587301,
        33.766129025677024
       ],
       [
        -84.31699406837606,
        33.76613308662409
       ],
       [
        -84.31698492307692,
        33.76482211736112
       ],
       [
        -84.31460191941392,
        33.76528697635998
       ],
       [
        -84.312441015873,
        33.76542910950711
       ],
       [
        -84.31231089133088,
        33.75529991314092
       ],
       [
        -84.31044289865689,
        33.75530397408797
       ],
       [
        -84.30982807326006,
        33.754144932020935
       ],
       [
        -84.31251992673992,
        33.75175207868508
       ],
       [
        -84.311225997558,
        33.7517731000581
       ],
       [
        -84.31121894261294,
        33.752425001501
       ],
       [
        -84.30467090842491,
        33.75238104772105
       ],
       [
        -84.30401087912088,
        33.75355203375003
       ],
       [
        -84.302510004884,
        33.75355298926699
       ],
       [
        -84.3024729010989,
        33.75475598511399
       ],
       [
        -84.29755900122099,
        33.75434702385702
       ],
       [
        -84.29563404639804,
        33.75356493322894
       ],
       [
        -84.29064907448107,
        33.753143072493074
       ],
       [
        -84.29097203418803,
        33.74944593851294
       ],
       [
        -84.29080689621489,
        33.74706407362208
       ],
       [
        -84.28956,
        33.74470394674195
       ],
       [
        -84.29097412454212,
        33.74475793344993
       ],
       [
        -84.28969796336996,
        33.742151999833
       ],
       [
        -84.29016594139193,
        33.74201297211597
       ],
       [
        -84.29029606593406,
        33.738865977022975
       ],
       [
        -84.29382406105006,
        33.73902100964901
       ],
       [
        -84.2953298998779,
        33.73945600874301
       ],
       [
        -84.29545505982905,
        33.7385250963491
       ],
       [
        -84.29784302808302,
        33.73859389356989
       ],
       [
        -84.29678191208791,
        33.73829003917804
       ],
       [
        -84.29682502564103,
        33.73703902860403
       ],
       [
        -84.29879596825397,
        33.73709110427811
       ],
       [
        -84.29841604639805,
        33.73859389356989
       ],
       [
        -84.30048601953601,
        33.73864596924397
       ],
       [
        -84.30052887179487,
        33.737436045899045
       ],
       [
        -84.30550313064712,
        33.73754593034893
       ],
       [
        -84.30549006593407,
        33.73888198193198
       ],
       [
        -84.30602598046397,
        33.73934588541389
       ],
       [
        -84.31395495482295,
        33.73955108268009
       ],
       [
        -84.31390112820512,
        33.738215031097035
       ],
       [
        -84.31246897435896,
        33.73822601954202
       ],
       [
        -84.3134969059829,
        33.73667903759104
       ],
       [
        -84.31533798534798,
        33.7374241019371
       ],
       [
        -84.31533903052502,
        33.73962107429708
       ],
       [
        -84.31829008791209,
        33.73973597521098
       ],
       [
        -84.32056204151404,
        33.73957090965691
       ],
       [
        -84.32299991697191,
        33.73971901478502
       ],
       [
        -84.32296908424908,
        33.74104192800993
       ],
       [
        -84.32047607570208,
        33.74161308827009
       ],
       [
        -84.32032504761904,
        33.74561407664208
       ],
       [
        -84.31967390231989,
        33.744714935186934
       ],
       [
        -84.31703012698412,
        33.744770116291114
       ],
       [
        -84.31695304517704,
        33.74658105980106
       ],
       [
        -84.31997909401709,
        33.746583926351924
       ],
       [
        -84.31994590964591,
        33.7473309017319
       ],
       [
        -84.32856992673992,
        33.7474168982579
       ],
       [
        -84.32872409035409,
        33.74464900451701
       ],
       [
        -84.32780511843711,
        33.74156411802612
       ],
       [
        -84.32710406593407,
        33.73995502747303
       ],
       [
        -84.32939195848596,
        33.73983104914805
       ],
       [
        -84.32863106959707,
        33.7390351035241
       ],
       [
        -84.32916201953601,
        33.73876206455407
       ],
       [
        -84.32860311111111,
        33.73777191010891
       ],
       [
        -84.32929789255189,
        33.73778409295009
       ],
       [
        -84.329305992674,
        33.73534704695505
       ],
       [
        -84.328994007326,
        33.73588810843111
       ],
       [
        -84.325761013431,
        33.736622900969905
       ],
       [
        -84.324737001221,
        33.73556394930395
       ],
       [
        -84.32334299633699,
        33.73337294892495
       ],
       [
        -84.32299207814407,
        33.732296081316086
       ],
       [
        -84.32382194871795,
        33.73215394816895
       ],
       [
        -84.3245020976801,
        33.73342502459903
       ],
       [
        -84.32657703540903,
        33.73222298426899
       ],
       [
        -84.32761907692307,
        33.73265893887994
       ],
       [
        -84.32761803174603,
        33.73349692724993
       ],
       [
        -84.3293039023199,
        33.733292924379924
       ],
       [
        -84.32934989010988,
        33.73070490670591
       ],
       [
        -84.32609494749694,
        33.72953200964301
       ],
       [
        -84.32081993894994,
        33.72627990768491
       ],
       [
        -84.3259541098901,
        33.72363097580498
       ],
       [
        -84.32724411965812,
        33.72277101054501
       ],
       [
        -84.32850408058607,
        33.721121071642074
       ],
       [
        -84.32928587301586,
        33.71843989106489
       ],
       [
        -84.33060201221001,
        33.718626933508936
       ],
       [
        -84.33189907692308,
        33.72070709392109
       ],
       [
        -84.3327279023199,
        33.72294610902711
       ],
       [
        -84.33340909645909,
        33.72579498282998
       ],
       [
        -84.33652398534798,
        33.72582794816495
       ],
       [
        -84.336698007326,
        33.7272359023989
       ],
       [
        -84.33421597313797,
        33.72745591017791
       ],
       [
        -84.33483602442001,
        33.72868709377509
       ],
       [
        -84.33694702075702,
        33.73029188450189
       ],
       [
        -84.34006504517704,
        33.73297808154308
       ],
       [
        -84.34008202930403,
        33.73240692128292
       ],
       [
        -84.34475005128205,
        33.73244203653104
       ],
       [
        -84.3441671037851,
        33.73120296991897
       ],
       [
        -84.34541399999999,
        33.731218974827975
       ],
       [
        -84.34557103785103,
        33.732446097478096
       ],
       [
        -84.34859787057387,
        33.732469985401984
       ],
       [
        -84.3487259047619,
        33.72217691787792
       ],
       [
        -84.34943793162392,
        33.722239026480025
       ],
       [
        -84.3495009035409,
        33.71553296960697
       ],
       [
        -84.34450208302808,
        33.715790003668005
       ],
       [
        -84.34419898168498,
        33.71442003123303
       ],
       [
        -84.34490003418803,
        33.712518074733076
       ],
       [
        -84.34658904029304,
        33.7124960978431
       ],
       [
        -84.34659008547008,
        33.71318311453412
       ],
       [
        -84.34811996336995,
        33.713190997549
       ],
       [
        -84.34815602197801,
        33.71401489204389
       ],
       [
        -84.34950795848596,
        33.714028030402034
       ],
       [
        -84.34950194871794,
        33.70346909028509
       ],
       [
        -84.34957798534798,
        33.695307064451065
       ],
       [
        -84.34922393162392,
        33.68990696037696
       ],
       [
        -84.34922288644688,
        33.6876528958789
       ],
       [
        -84.34964095726495,
        33.68472901399502
       ],
       [
        -84.34990408058607,
        33.65622188226489
       ],
       [
        -84.34987507692307,
        33.647944
       ],
       [
        -84.37998793406594,
        33.648319995922
       ],
       [
        -84.3911438925519,
        33.64832811781612
       ],
       [
        -84.399290002442,
        33.648277953175956
       ],
       [
        -84.39931587057387,
        33.6537029006909
       ],
       [
        -84.39676198046398,
        33.653125051812054
       ],
       [
        -84.39651897680098,
        33.6542141022621
       ],
       [
        -84.39552788766788,
        33.65515098663699
       ],
       [
        -84.39484199023198,
        33.656434962545966
       ],
       [
        -84.3948169059829,
        33.66070301790702
       ],
       [
        -84.39567003174604,
        33.663688052876054
       ],
       [
        -84.39755004395604,
        33.66881511798012
       ],
       [
        -84.39752313064713,
        33.67292503528504
       ],
       [
        -84.40849592185592,
        33.673050924643924
       ],
       [
        -84.41832711843712,
        33.67310801678202
       ],
       [
        -84.41822704273504,
        33.67690810771411
       ],
       [
        -84.41722706959706,
        33.67740808196108
       ],
       [
        -84.41552787301588,
        33.677507933482936
       ],
       [
        -84.41504892063492,
        33.67940988998289
       ],
       [
        -84.41512887667888,
        33.681344095180094
       ],
       [
        -84.41693807814407,
        33.68137108853409
       ],
       [
        -84.41684296703296,
        33.69218109073109
       ],
       [
        -84.4155459023199,
        33.69217296883697
       ],
       [
        -84.41541891330891,
        33.69718895509496
       ],
       [
        -84.42319398534798,
        33.69733108824209
       ],
       [
        -84.42549494261294,
        33.69722908680709
       ],
       [
        -84.42961294017094,
        33.697418040285044
       ],
       [
        -84.42929389987789,
        33.69979608310808
       ],
       [
        -84.43791190720391,
        33.69991695600296
       ],
       [
        -84.43789701343101,
        33.701016994898
       ],
       [
        -84.44304111355311,
        33.70110991892192
       ],
       [
        -84.44292797313797,
        33.70570691099491
       ],
       [
        -84.4494490940171,
        33.705629991879995
       ],
       [
        -84.44968896214895,
        33.69812010636811
       ],
       [
        -84.45421405616605,
        33.69924307767008
       ],
       [
        -84.45616095970696,
        33.69935296211997
       ],
       [
        -84.45880891575091,
        33.698770096777096
       ],
       [
        -84.46068396336996,
        33.69767196891597
       ],
       [
        -84.4657940952381,
        33.69766790796891
       ],
       [
        -84.46831401709402,
        33.697837034470034
       ],
       [
        -84.4699410964591,
        33.69768892934193
       ],
       [
        -84.47260107203907,
        33.69786092239392
       ],
       [
        -84.47644889133089,
        33.69775605440805
       ],
       [
        -84.47634097680097,
        33.69262994482094
       ],
       [
        -84.48217306471307,
        33.692710924882924
       ],
       [
        -84.48218508424908,
        33.69108797933398
       ],
       [
        -84.48653589499389,
        33.68998101294102
       ],
       [
        -84.48660696703297,
        33.67431411805912
       ],
       [
        -84.48783687912088,
        33.67393310567311
       ],
       [
        -84.49216809279609,
        33.673949110582114
       ],
       [
        -84.4921511086691,
        33.666068006733006
       ],
       [
        -84.49789200488401,
        33.6660649013029
       ],
       [
        -84.50673394139194,
        33.66625003271304
       ],
       [
        -84.50623094993895,
        33.65416990960291
       ],
       [
        -84.50798005372405,
        33.65430296533897
       ],
       [
        -84.51559103296704,
        33.65612394177695
       ],
       [
        -84.51562003663004,
        33.65506188468089
       ],
       [
        -84.51923007814408,
        33.655809098940104
       ],
       [
        -84.52180591697191,
        33.65584206427506
       ],
       [
        -84.52191592185592,
        33.65669796858797
       ],
       [
        -84.52592992429793,
        33.656740011334016
       ],
       [
        -84.52587191697192,
        33.65890903482304
       ],
       [
        -84.52867795604395,
        33.65916105242005
       ],
       [
        -84.52859512576313,
        33.660209971157975
       ],
       [
        -84.52928206837606,
        33.66031197259297
       ],
       [
        -84.52893297924298,
        33.66203691957692
       ],
       [
        -84.52810807326007,
        33.66305788944389
       ],
       [
        -84.52579692551893,
        33.66414311782612
       ],
       [
        -84.52586198779,
        33.673114944279945
       ],
       [
        -84.53564902564102,
        33.67321001821702
       ],
       [
        -84.53579796336996,
        33.67754710967811
       ],
       [
        -84.53563387057388,
        33.6806351015991
       ],
       [
        -84.54555991697192,
        33.680764096388096
       ],
       [
        -84.54519697924297,
        33.68982311376411
       ],
       [
        -84.54538903052503,
        33.68982693583194
       ],
       [
        -84.54526491575092,
        33.693626071247074
       ],
       [
        -84.54745403907204,
        33.69369200191701
       ],
       [
        -84.54734298901099,
        33.69760794927995
       ],
       [
        -84.54513897191697,
        33.69754607955708
       ],
       [
        -84.54506293528694,
        33.701672001771
       ],
       [
        -84.54642793650794,
        33.70114192873993
       ],
       [
        -84.54514106227106,
        33.702706109996114
       ],
       [
        -84.54512904273504,
        33.706048986064985
       ],
       [
        -84.54474311111112,
        33.706041103050104
       ],
       [
        -84.545452002442,
        33.70928197768398
       ],
       [
        -84.54117095726495,
        33.70940308945809
       ],
       [
        -84.54117304761905,
        33.70895304097204
       ],
       [
        -84.53607702564102,
        33.708921031154034
       ],
       [
        -84.53649405128205,
        33.70600001582102
       ],
       [
        -84.53527903296704,
        33.705985921945924
       ],
       [
        -84.53513087912089,
        33.712300933504935
       ],
       [
        -84.5354081123321,
        33.71346093108893
       ],
       [
        -84.53596101098901,
        33.71355003304503
       ],
       [
        -84.5365180903541,
        33.71563306000806
       ],
       [
        -84.535578998779,
        33.71568203025203
       ],
       [
        -84.5361609010989,
        33.7222148996769
       ],
       [
        -84.536169001221,
        33.72464788472489
       ],
       [
        -84.53682798534798,
        33.72679899227099
       ],
       [
        -84.53786898168498,
        33.72728893358993
       ],
       [
        -84.53924312820513,
        33.72724306877607
       ],
       [
        -84.53876600488401,
        33.72509697769398
       ],
       [
        -84.539275006105,
        33.722223021571025
       ],
       [
        -84.54348602442002,
        33.722230904585906
       ],
       [
        -84.54340711355312,
        33.720216913722915
       ],
       [
        -84.5505961025641,
        33.720226946650946
       ],
       [
        -84.55085295482296,
        33.72259495654596
       ]
      ],
      [
       [
        -84.32027095970696,
        33.79834404095304
       ],
       [
        -84.31927987057387,
        33.797400945717946
       ],
       [
        -84.31822711599511,
        33.79846993031193
       ],
       [
        -84.3185519047619,
        33.79889991294191
       ],
       [
        -84.31998797802197,
        33.79799694941895
       ],
       [
        -84.32027095970696,
        33.79834404095304
       ]
      ]
     ],
     [
      [
       [
        -84.42855208547009,
        33.657604993057994
       ],
       [
        -84.42697987789988,
        33.6576080984881
       ],
       [
        -84.42700705250304,
        33.65895991610092
       ],
       [
        -84.42059306227107,
        33.65886388664689
       ],
       [
        -84.42146003663004,
        33.65722302515503
       ],
       [
        -84.41901693528693,
        33.65557093633894
       ],
       [
        -84.41898192185592,
        33.649538996678
       ],
       [
        -84.41919801221,
        33.648776971905974
       ],
       [
        -84.428527001221,
        33.64876693897794
       ],
       [
        -84.4284149059829,
        33.64953708564409
       ],
       [
        -84.42842091575092,
        33.65743108897209
       ],
       [
        -84.42855208547009,
        33.657604993057994
       ]
      ]
     ]
    ]
   }
  }
 ]
}
