{
 "type": "FeatureCollection",
 "features": [
  {
   "type": "Feature",
   "properties": {
    "name": "Rest of Clayton County",
    "geoid": "13063",
    "remainder": true
   },
   "geometry": {
    "type": "Polygon",
    "coordinates": [
     [
      [
       -84.4382284961785,
       33.64875798410099
      ],
      [
       -84.4285274965435,
       33.64876715617416
      ],
      [
       -84.41919787234187,
       33.648777162072165
      ],
      [
       -84.40874044512445,
       33.64861623387924
      ],
      [
       -84.40874465334466,
       33.64823434210535
      ],
      [
       -84.39928983459183,
       33.6482777009967
      ],
      [
       -84.39114377232377,
       33.648327730486734
      ],
      [
       -84.37998778055177,
       33.64832022606323
      ],
      [
       -84.37023838638439,
       33.648184312615314
      ],
      [
       -84.35986091535091,
       33.648081752160756
      ],
      [
       -84.34987480879681,
       33.64794417106317
      ],
      [
       -84.34122060393861,
       33.64793916811417
      ],
      [
       -84.32945336818136,
       33.64779408259309
      ],
      [
       -84.2816542989463,
       33.647307128890134
      ],
      [
       -84.28148281397281,
       33.64398016780317
      ],
      [
       -84.28146387698187,
       33.63936995029695
      ],
      [
       -84.27185756230156,
       33.63923236919937
      ],
      [
       -84.27205745276146,
       33.631210140473144
      ],
      [
       -84.26256581208182,
       33.63100418573919
      ],
      [
       -84.26272151622952,
       33.62901634733535
      ],
      [
       -84.26293087518488,
       33.61463036747737
      ],
      [
       -84.2629698012218,
       33.606953342232345
      ],
      [
       -84.2532425002105,
       33.606929995136994
      ],
      [
       -84.25323829199029,
       33.604653653340655
      ],
      [
       -84.25356442905642,
       33.60053372483673
      ],
      [
       -84.25322671938471,
       33.598759345590345
      ],
      [
       -84.24385816914616,
       33.598617595368594
      ],
      [
       -84.2438970951831,
       33.59029435587736
      ],
      [
       -84.25320252211853,
       33.59028601762902
      ],
      [
       -84.25308995222795,
       33.582176237295236
      ],
      [
       -84.26357894109694,
       33.582247112406115
      ],
      [
       -84.26365574111574,
       33.57884427325928
      ],
      [
       -84.26329173006773,
       33.57488527294827
      ],
      [
       -84.26339588351789,
       33.57066695311396
      ],
      [
       -84.26347268353668,
       33.5605017945648
      ],
      [
       -84.26391665076865,
       33.55382202382103
      ],
      [
       -84.26370203153803,
       33.548923302922304
      ],
      [
       -84.29259146326746,
       33.549145100328104
      ],
      [
       -84.29301544145343,
       33.53298474122374
      ],
      [
       -84.28252434847435,
       33.532878845469845
      ],
      [
       -84.28267794851195,
       33.52577215641116
      ],
      [
       -84.28342701170901,
       33.503699145410145
      ],
      [
       -84.28384362550962,
       33.49820173828074
      ],
      [
       -84.28391306114305,
       33.48434106806807
      ],
      [
       -84.29415060885461,
       33.484325225396226
      ],
      [
       -84.29424318969919,
       33.47438436572737
      ],
      [
       -84.29431052122251,
       33.45771787494888
      ],
      [
       -84.29436838425039,
       33.45265905968206
      ],
      [
       -84.29464086650887,
       33.44721668499169
      ],
      [
       -84.29467663638063,
       33.44402897265198
      ],
      [
       -84.29439468562668,
       33.44148330543431
      ],
      [
       -84.29460614869215,
       33.44115227697528
      ],
      [
       -84.2946797925458,
       33.43571490523391
      ],
      [
       -84.30432292915293,
       33.43572741260642
      ],
      [
       -84.30431135654736,
       33.43555230939131
      ],
      [
       -84.3041524962345,
       33.42947039105339
      ],
      [
       -84.30423034830835,
       33.42743335698436
      ],
      [
       -84.32338721875122,
       33.428027040266045
      ],
      [
       -84.32324203515404,
       33.43593837028937
      ],
      [
       -84.3450542925483,
       33.436075951386954
      ],
      [
       -84.35358435491035,
       33.43616517064417
      ],
      [
       -84.35367588369988,
       33.42987813139713
      ],
      [
       -84.3536601028741,
       33.40767921284621
      ],
      [
       -84.3537831933152,
       33.40207340848841
      ],
      [
       -84.35387367004967,
       33.385561175304176
      ],
      [
       -84.35418087012486,
       33.37766818942719
      ],
      [
       -84.35410722627122,
       33.37334314001414
      ],
      [
       -84.35420506739106,
       33.36907812598913
      ],
      [
       -84.35407250845451,
       33.36369161756262
      ],
      [
       -84.35418823451023,
       33.35335802639703
      ],
      [
       -84.3543996975757,
       33.3525141956652
      ],
      [
       -84.37380064479065,
       33.352591741374745
      ],
      [
       -84.37755542927142,
       33.35250002064302
      ],
      [
       -84.38811806199406,
       33.352465
      ],
      [
       -84.38906701565101,
       33.35364236066536
      ],
      [
       -84.38844525111524,
       33.35584032292733
      ],
      [
       -84.38891236355836,
       33.35662661974562
      ],
      [
       -84.39031054472254,
       33.35680922738423
      ],
      [
       -84.39148148199548,
       33.35844936083236
      ],
      [
       -84.39305325224325,
       33.35945995653096
      ],
      [
       -84.39474600882201,
       33.35988437337137
      ],
      [
       -84.39512264453064,
       33.36068984816085
      ],
      [
       -84.39479755951956,
       33.362212412307414
      ],
      [
       -84.3935656030536,
       33.36376832944733
      ],
      [
       -84.39344040850241,
       33.3660846948357
      ],
      [
       -84.39247041374442,
       33.366605001532
      ],
      [
       -84.39299644127044,
       33.36720368776269
      ],
      [
       -84.3942767922688,
       33.36741297779598
      ],
      [
       -84.39577281455281,
       33.36814424217525
      ],
      [
       -84.39610842011442,
       33.36882797853898
      ],
      [
       -84.39446826628827,
       33.369664304847305
      ],
      [
       -84.39633566400566,
       33.37325975753076
      ],
      [
       -84.39427889637889,
       33.374105255912255
      ],
      [
       -84.39361294553095,
       33.37389263057963
      ],
      [
       -84.3910596079196,
       33.37424283700984
      ],
      [
       -84.38736373852174,
       33.37539434910535
      ],
      [
       -84.38648422049822,
       33.37651417585718
      ],
      [
       -84.38721645081445,
       33.37728796530297
      ],
      [
       -84.38694712472112,
       33.37921826979327
      ],
      [
       -84.38733848920049,
       33.380059599050604
      ],
      [
       -84.38808544828744,
       33.37911821081321
      ],
      [
       -84.38879874161275,
       33.37951094230994
      ],
      [
       -84.3904651968152,
       33.38189818280919
      ],
      [
       -84.39035157486957,
       33.38477070936171
      ],
      [
       -84.38994758572959,
       33.386033953984956
      ],
      [
       -84.39157616695016,
       33.38710625272125
      ],
      [
       -84.39273973983774,
       33.387143774838776
      ],
      [
       -84.39471865539065,
       33.38873304497205
      ],
      [
       -84.3933089016209,
       33.389358413597414
      ],
      [
       -84.39278813437014,
       33.39094518225618
      ],
      [
       -84.39420104430505,
       33.391333744628746
      ],
      [
       -84.39416843059843,
       33.392543624462625
      ],
      [
       -84.39480913212513,
       33.39436803319904
      ],
      [
       -84.39354245784246,
       33.39581722076022
      ],
      [
       -84.39054725710926,
       33.39678695904196
      ],
      [
       -84.38858412238213,
       33.39608070940771
      ],
      [
       -84.38802022087422,
       33.39742233356534
      ],
      [
       -84.38716279600679,
       33.39825365692466
      ],
      [
       -84.38706811105212,
       33.4007000989871
      ],
      [
       -84.38646212734213,
       33.40124625425326
      ],
      [
       -84.38452529399129,
       33.40146304871005
      ],
      [
       -84.38443902547702,
       33.402893892124894
      ],
      [
       -84.3852143900504,
       33.40283135526236
      ],
      [
       -84.38700183158383,
       33.404594894785895
      ],
      [
       -84.38687242881242,
       33.40613830455331
      ],
      [
       -84.38749103718304,
       33.40717308117208
      ],
      [
       -84.38671041233441,
       33.409796294099294
      ],
      [
       -84.3885999032079,
       33.41196840779141
      ],
      [
       -84.39307113717913,
       33.41201093285793
      ],
      [
       -84.39297960838961,
       33.41391372112872
      ],
      [
       -84.39307324128924,
       33.420040666007665
      ],
      [
       -84.4023144928665,
       33.42012488231588
      ],
      [
       -84.40213248734248,
       33.42543217738318
      ],
      [
       -84.40224505723306,
       33.428176294911296
      ],
      [
       -84.4021956106456,
       33.43636779007879
      ],
      [
       -84.39867333033133,
       33.43592336144236
      ],
      [
       -84.396949012101,
       33.43655873596574
      ],
      [
       -84.3926177014517,
       33.436522881497886
      ],
      [
       -84.39242412332212,
       33.43901435010135
      ],
      [
       -84.39252406855206,
       33.44451259105559
      ],
      [
       -84.38378464723465,
       33.444408362951364
      ],
      [
       -84.38359738143538,
       33.44565576490277
      ],
      [
       -84.38444323369723,
       33.44555403827304
      ],
      [
       -84.3851439023619,
       33.44710328481429
      ],
      [
       -84.38584036280636,
       33.44728505862806
      ],
      [
       -84.38741844538444,
       33.446060169947174
      ],
      [
       -84.388703004603,
       33.447812035923036
      ],
      [
       -84.38881031421832,
       33.45027098535799
      ],
      [
       -84.3880360017,
       33.45184441281941
      ],
      [
       -84.38719751382351,
       33.451972821843825
      ],
      [
       -84.38654313558114,
       33.453743031966034
      ],
      [
       -84.38431803914604,
       33.45440675653376
      ],
      [
       -84.38370995132595,
       33.45511133851834
      ],
      [
       -84.38390247740048,
       33.45600102961603
      ],
      [
       -84.38494190779191,
       33.45652383778684
      ],
      [
       -84.38487352421352,
       33.45856837627938
      ],
      [
       -84.38202561118761,
       33.46095561677862
      ],
      [
       -84.38167317274517,
       33.46325780714481
      ],
      [
       -84.3828640990641,
       33.46396322295423
      ],
      [
       -84.38301980321181,
       33.46457274890775
      ],
      [
       -84.38595924502724,
       33.46648220777721
      ],
      [
       -84.38661572737972,
       33.467789645116646
      ],
      [
       -84.38648632460833,
       33.468903635094634
      ],
      [
       -84.38538587502387,
       33.4696424038974
      ],
      [
       -84.38494506395706,
       33.47129337706838
      ],
      [
       -84.38612652178053,
       33.47247073773374
      ],
      [
       -84.38695028088628,
       33.47480461344362
      ],
      [
       -84.38698289459289,
       33.47617959059459
      ],
      [
       -84.38770776052375,
       33.477139322978324
      ],
      [
       -84.38970350895751,
       33.478450929441934
      ],
      [
       -84.39084078046878,
       33.47858267376568
      ],
      [
       -84.39198752047552,
       33.47931810726911
      ],
      [
       -84.39231576165176,
       33.4804862958613
      ],
      [
       -84.39449035944436,
       33.48214310580611
      ],
      [
       -84.39617154341754,
       33.48494892637193
      ],
      [
       -84.40106254735454,
       33.48785897504198
      ],
      [
       -84.40614397325598,
       33.49112923604024
      ],
      [
       -84.40973884536885,
       33.49391004186104
      ],
      [
       -84.42064865625865,
       33.4940101008411
      ],
      [
       -84.42057185623986,
       33.50102173386873
      ],
      [
       -84.42042456853257,
       33.50211571205072
      ],
      [
       -84.42042456853257,
       33.5096142987813
      ],
      [
       -84.42463384079583,
       33.5137975979726
      ],
      [
       -84.4288588938849,
       33.51880221462522
      ],
      [
       -84.43203083986684,
       33.522359311366316
      ],
      [
       -84.43359945394945,
       33.52444470727571
      ],
      [
       -84.4337783033083,
       33.526460061899066
      ],
      [
       -84.43318494425894,
       33.53095104245404
      ],
      [
       -84.43404236912637,
       33.53563463654564
      ],
      [
       -84.43491031454431,
       33.54161983120283
      ],
      [
       -84.4369008027028,
       33.54536870765571
      ],
      [
       -84.43796653447053,
       33.54787435128135
      ],
      [
       -84.43924898957899,
       33.54986302351003
      ],
      [
       -84.43944782798383,
       33.5507201954392
      ],
      [
       -84.4473413970394,
       33.550901135428134
      ],
      [
       -84.45397670825271,
       33.550856942711945
      ],
      [
       -84.45866466556467,
       33.55093282077182
      ],
      [
       -84.45857103266503,
       33.55624178348879
      ],
      [
       -84.45892452316252,
       33.559758856637856
      ],
      [
       -84.4585541997842,
       33.5597671948862
      ],
      [
       -84.45832695589296,
       33.577395085698086
      ],
      [
       -84.45839849563649,
       33.581115612106615
      ],
      [
       -84.45827014492015,
       33.587250061409065
      ],
      [
       -84.45817756407557,
       33.59643130665431
      ],
      [
       -84.45809129556129,
       33.61379487499388
      ],
      [
       -84.45807656679057,
       33.61617627871928
      ],
      [
       -84.45799345444145,
       33.623170401425405
      ],
      [
       -84.45832800794801,
       33.62330965017265
      ],
      [
       -84.45795137223936,
       33.627016835383834
      ],
      [
       -84.45786825989026,
       33.6422182959293
      ],
      [
       -84.45787878044078,
       33.648864713679714
      ],
      [
       -84.45309192995393,
       33.64887471957772
      ],
      [
       -84.45320344778945,
       33.64769735891236
      ],
      [
       -84.4530025052745,
       33.64409773710474
      ],
      [
       -84.4531035025595,
       33.64109513387814
      ],
      [
       -84.44830402741202,
       33.64109596770297
      ],
      [
       -84.4482146027326,
       33.64417194751495
      ],
      [
       -84.4486007069367,
       33.64569784696085
      ],
      [
       -84.44830297535698,
       33.64875965175065
      ],
      [
       -84.4382284961785,
       33.64875798410099
      ]
     ]
    ]
   }
  },
  {
   "type": "Feature",
   "properties": {
    "name": "Bonanza",
    "geoid": "1309272"
   },
   "geometry": {
    "type": "Polygon",
    "coordinates": [
     [
      [
       -84.34254408919409,
       33.47178616754517
      ],
      [
       -84.34014645573045,
       33.473029400372404
      ],
      [
       -84.33667888227887,
       33.47363559102659
      ],
      [
       -84.33572466834667,
       33.46848338737839
      ],
      [
       -84.3356362957223,
       33.46798726160226
      ],
      [
       -84.33511868463668,
       33.46576261694562
      ],
      [
       -84.33343750066349,
       33.46344458390759
      ],
      [
       -84.33029606427806,
       33.46090225198925
      ],
      [
       -84.32899993245393,
       33.45951476746577
      ],
      [
       -84.32772904995105,
       33.45763115716616
      ],
      [
       -84.32692527989128,
       33.45572336594637
      ],
      [
       -84.32645395922796,
       33.454029033884034
      ],
      [
       -84.32668225517425,
       33.45398400734301
      ],
      [
       -84.3292881955382,
       33.45355792285292
      ],
      [
       -84.32907252425252,
       33.45247228291929
      ],
      [
       -84.3304444040404,
       33.45212791326291
      ],
      [
       -84.32934395445595,
       33.44805134365035
      ],
      [
       -84.3298321080001,
       33.447999646510645
      ],
      [
       -84.33056013009613,
       33.44805634659935
      ],
      [
       -84.33285781832981,
       33.44895687741988
      ],
      [
       -84.33590983003583,
       33.448840141943144
      ],
      [
       -84.33704394538195,
       33.448760094759095
      ],
      [
       -84.33757733729334,
       33.448785109504115
      ],
      [
       -84.33968775972775,
       33.44897772304073
      ],
      [
       -84.3415498971699,
       33.44897772304073
      ],
      [
       -84.3417845054465,
       33.449905770080775
      ],
      [
       -84.342785009801,
       33.449914942153946
      ],
      [
       -84.34290073585673,
       33.45074376403877
      ],
      [
       -84.34410007861608,
       33.45207788377289
      ],
      [
       -84.3453856898897,
       33.452613199316204
      ],
      [
       -84.34649034769434,
       33.45473778499279
      ],
      [
       -84.34602007908607,
       33.45784878544779
      ],
      [
       -84.34350145929146,
       33.4597298942729
      ],
      [
       -84.34278395774595,
       33.46101565216665
      ],
      [
       -84.34254408919409,
       33.47178616754517
      ]
     ],
     [
      [
       -84.33511026819626,
       33.45824068311968
      ],
      [
       -84.33466104068904,
       33.45845414227715
      ],
      [
       -84.33398667340067,
       33.45723175507076
      ],
      [
       -84.33401087066687,
       33.4562912006582
      ],
      [
       -84.3348262133322,
       33.45656886432786
      ],
      [
       -84.33336490886491,
       33.453502890413894
      ],
      [
       -84.33323761020361,
       33.45415160613461
      ],
      [
       -84.32746288002288,
       33.45653717898418
      ],
      [
       -84.32951333531933,
       33.4597890958361
      ],
      [
       -84.33084523701524,
       33.45938385696686
      ],
      [
       -84.33474836125836,
       33.4586575955366
      ],
      [
       -84.33511026819626,
       33.45824068311968
      ]
     ]
    ]
   }
  },
  {
   "type": "Feature",
   "properties": {
    "name": "Conley",
    "geoid": "1319280"
   },
   "geometry": {
    "type": "Polygon",
    "coordinates": [
     [
      [
       -84.35986091535091,
       33.648081752160756
      ],
      [
       -84.34987480879681,
       33.64794417106317
      ],
      [
       -84.34122060393861,
       33.64793916811417
      ],
      [
       -84.32945336818136,
       33.64779408259309
      ],
      [
       -84.32465494508894,
       33.64368165851266
      ],
      [
       -84.32392692299292,
       33.64287618372319
      ],
      [
       -84.31532847705247,
       33.63167624855525
      ],
      [
       -84.31633424168224,
       33.63161704699205
      ],
      [
       -84.32535456169856,
       33.63168458680359
      ],
      [
       -84.33262321005321,
       33.63180882670383
      ],
      [
       -84.34038842839243,
       33.63179882080582
      ],
      [
       -84.34049468595269,
       33.62374073761174
      ],
      [
       -84.34161933280333,
       33.62374824203524
      ],
      [
       -84.3416288012988,
       33.6253691975122
      ],
      [
       -84.34277448925049,
       33.62813416066116
      ],
      [
       -84.34305117972917,
       33.631131760938764
      ],
      [
       -84.34358562369562,
       33.63209733009633
      ],
      [
       -84.34277133308534,
       33.63210733599434
      ],
      [
       -84.3422211082931,
       33.63343395130495
      ],
      [
       -84.34277869747069,
       33.635432629431634
      ],
      [
       -84.3403736996217,
       33.63473471804572
      ],
      [
       -84.3403516064656,
       33.63636984854485
      ],
      [
       -84.34343728393328,
       33.63676508151608
      ],
      [
       -84.34369293331093,
       33.63576782701483
      ],
      [
       -84.34527206794407,
       33.636354839697844
      ],
      [
       -84.34530257754058,
       33.63742713843414
      ],
      [
       -84.34685961901762,
       33.63719033218133
      ],
      [
       -84.34733093968094,
       33.637903252414254
      ],
      [
       -84.34763603564603,
       33.639975307126306
      ],
      [
       -84.35027038149639,
       33.63991610556311
      ],
      [
       -84.35023461162461,
       33.64253931849032
      ],
      [
       -84.34944451828052,
       33.6426252024482
      ],
      [
       -84.34955708817108,
       33.64388094264795
      ],
      [
       -84.35020304997305,
       33.644627215874216
      ],
      [
       -84.35589782396983,
       33.63931491785792
      ],
      [
       -84.35861949038949,
       33.6393390987781
      ],
      [
       -84.35880465207865,
       33.638312660407664
      ],
      [
       -84.36008395102195,
       33.63936327969828
      ],
      [
       -84.35986091535091,
       33.648081752160756
      ]
     ]
    ]
   }
  },
  {
   "type": "Feature",
   "properties": {
    "name": "Forest Park",
    "geoid": "1330536"
   },
   "geometry": {
    "type": "MultiPolygon",
    "coordinates": [
     [
      [
       [
        -84.37023838638439,
        33.648184312615314
       ],
       [
        -84.35986091535091,
        33.648081752160756
       ],
       [
        -84.36008395102195,
        33.63936327969828
       ],
       [
        -84.35880465207865,
        33.638312660407664
       ],
       [
        -84.35861949038949,
        33.6393390987781
       ],
       [
        -84.35589782396983,
        33.63931491785792
       ],
       [
        -84.35020304997305,
        33.644627215874216
       ],
       [
        -84.34955708817108,
        33.64388094264795
       ],
       [
        -84.34944451828052,
        33.6426252024482
       ],
       [
        -84.35023461162461,
        33.64253931849032
       ],
       [
        -84.35027038149639,
        33.63991610556311
       ],
       [
        -84.34763603564603,
        33.639975307126306
       ],
       [
        -84.34733093968094,
        33.637903252414254
       ],
       [
        -84.34685961901762,
        33.63719033218133
       ],
       [
        -84.34530257754058,
        33.63742713843414
       ],
       [
        -84.34527206794407,
        33.636354839697844
       ],
       [
        -84.34369293331093,
        33.63576782701483
       ],
       [
        -84.34343728393328,
        33.63676508151608
       ],
       [
        -84.3403516064656,
        33.63636984854485
       ],
       [
        -84.3403736996217,
        33.63473471804572
       ],
       [
        -84.34277869747069,
        33.635432629431634
       ],
       [
        -84.3422211082931,
        33.63343395130495
       ],
       [
        -84.34277133308534,
        33.63210733599434
       ],
       [
        -84.34358562369562,
        33.63209733009633
       ],
       [
        -84.34370871413671,
        33.635209998201
       ],
       [
        -84.3455982050102,
        33.635209164376164
       ],
       [
        -84.34701427111027,
        33.63387421081721
       ],
       [
        -84.34541514743114,
        33.632535921958926
       ],
       [
        -84.34699323000923,
        33.632474218921224
       ],
       [
        -84.3477507096467,
        33.63317963473064
       ],
       [
        -84.34865547699148,
        33.6322665965376
       ],
       [
        -84.35037348289148,
        33.63198726521827
       ],
       [
        -84.35044397057997,
        33.627988241315244
       ],
       [
        -84.35001894033894,
        33.62798573984074
       ],
       [
        -84.34878593181793,
        33.62994772967473
       ],
       [
        -84.347129997166,
        33.62997524589425
       ],
       [
        -84.34735198078198,
        33.62794321477422
       ],
       [
        -84.3474435095715,
        33.620909068476074
       ],
       [
        -84.34544986524786,
        33.620599719462724
       ],
       [
        -84.34547827073428,
        33.62377325678026
       ],
       [
        -84.34161933280333,
        33.62374824203524
       ],
       [
        -84.34049468595269,
        33.62374073761174
       ],
       [
        -84.34038842839243,
        33.63179882080582
       ],
       [
        -84.33262321005321,
        33.63180882670383
       ],
       [
        -84.32535456169856,
        33.63168458680359
       ],
       [
        -84.31633424168224,
        33.63161704699205
       ],
       [
        -84.31532847705247,
        33.63167624855525
       ],
       [
        -84.31221755026355,
        33.627668052579054
       ],
       [
        -84.30986936338736,
        33.622237351436354
       ],
       [
        -84.30878574668374,
        33.622511679806685
       ],
       [
        -84.30829128080929,
        33.61976422697923
       ],
       [
        -84.30877733024333,
        33.61964582385283
       ],
       [
        -84.30777156561356,
        33.61739116150216
       ],
       [
        -84.3076127053007,
        33.61583107523808
       ],
       [
        -84.30988409215809,
        33.615801891368896
       ],
       [
        -84.31027335252735,
        33.613944963463965
       ],
       [
        -84.31491712352712,
        33.614336027311026
       ],
       [
        -84.31448157273557,
        33.61585108703409
       ],
       [
        -84.3291324913905,
        33.6160361961472
       ],
       [
        -84.32921770784971,
        33.61193711326411
       ],
       [
        -84.33590562181563,
        33.61174033060333
       ],
       [
        -84.33572361629162,
        33.61611290803191
       ],
       [
        -84.33698187413387,
        33.61611040655741
       ],
       [
        -84.34077874081675,
        33.614294336069335
       ],
       [
        -84.34079978191778,
        33.61308028711129
       ],
       [
        -84.35023776778976,
        33.61590695329796
       ],
       [
        -84.35260383960184,
        33.616684911867914
       ],
       [
        -84.35313723151323,
        33.61567264851965
       ],
       [
        -84.35285317664918,
        33.615085635836635
       ],
       [
        -84.3528679054199,
        33.612347355082356
       ],
       [
        -84.35688149544349,
        33.612456586135586
       ],
       [
        -84.3580334957255,
        33.61268672178972
       ],
       [
        -84.36078567174167,
        33.61262001580302
       ],
       [
        -84.36088982519182,
        33.60548914582415
       ],
       [
        -84.36204813780414,
        33.60552083116783
       ],
       [
        -84.36291818733218,
        33.60383567117867
       ],
       [
        -84.36068677856677,
        33.60333871157771
       ],
       [
        -84.35752956135556,
        33.602950983029984
       ],
       [
        -84.35525817449818,
        33.60327867618968
       ],
       [
        -84.35521504024103,
        33.60020603167703
       ],
       [
        -84.35438812497013,
        33.59884606337307
       ],
       [
        -84.35520662380063,
        33.5977745984616
       ],
       [
        -84.3534844096804,
        33.59719008725309
       ],
       [
        -84.35316248083448,
        33.59860925712026
       ],
       [
        -84.35174641473441,
        33.597838802973804
       ],
       [
        -84.35088372959173,
        33.596077764924765
       ],
       [
        -84.35162648045848,
        33.594846205645204
       ],
       [
        -84.35189159833159,
        33.5925706976737
       ],
       [
        -84.35140765300766,
        33.59153425340526
       ],
       [
        -84.35302781778782,
        33.59142168705269
       ],
       [
        -84.35302676573276,
        33.587499375034376
       ],
       [
        -84.356225013091,
        33.58834070429171
       ],
       [
        -84.35627551173351,
        33.59056201364901
       ],
       [
        -84.36338635183036,
        33.59062038138738
       ],
       [
        -84.36412805064205,
        33.589966662717664
       ],
       [
        -84.36560303182503,
        33.59010424381525
       ],
       [
        -84.36561881265081,
        33.58885600803901
       ],
       [
        -84.3662532018472,
        33.5884516029946
       ],
       [
        -84.36790808444408,
        33.58883015946916
       ],
       [
        -84.36790703238903,
        33.59079131547832
       ],
       [
        -84.37066657279057,
        33.59085885528986
       ],
       [
        -84.37054243029444,
        33.601830322453324
       ],
       [
        -84.37833710617511,
        33.601917040236046
       ],
       [
        -84.37945228453029,
        33.60155682790783
       ],
       [
        -84.38105351231951,
        33.60722933825234
       ],
       [
        -84.38607812724813,
        33.60718014258715
       ],
       [
        -84.3860697108077,
        33.610964873507875
       ],
       [
        -84.3874678919719,
        33.61308362241063
       ],
       [
        -84.38745000703601,
        33.61427932722233
       ],
       [
        -84.38855466484067,
        33.61532577738878
       ],
       [
        -84.3889270923291,
        33.61863189285489
       ],
       [
        -84.39583804196604,
        33.61803737574838
       ],
       [
        -84.39748345606745,
        33.61860521046021
       ],
       [
        -84.39865123717523,
        33.620573870892876
       ],
       [
        -84.39693007511008,
        33.62061139301039
       ],
       [
        -84.3969931984132,
        33.62228487945188
       ],
       [
        -84.39913518249918,
        33.62227237207937
       ],
       [
        -84.39937294694094,
        33.62460291248991
       ],
       [
        -84.40241233398633,
        33.624622090461095
       ],
       [
        -84.40220928736129,
        33.62553596247896
       ],
       [
        -84.39944133051932,
        33.62556514634815
       ],
       [
        -84.39942344558344,
        33.62657490822191
       ],
       [
        -84.40038186773586,
        33.62921062852163
       ],
       [
        -84.40011254164254,
        33.63060311599412
       ],
       [
        -84.39905207015006,
        33.631533664508666
       ],
       [
        -84.39806103429103,
        33.631693758876764
       ],
       [
        -84.39628095714295,
        33.63134938922039
       ],
       [
        -84.39470497867498,
        33.631557011604016
       ],
       [
        -84.3924093945514,
        33.631033369608375
       ],
       [
        -84.39115113670914,
        33.63105421522922
       ],
       [
        -84.38849995797796,
        33.631844681171685
       ],
       [
        -84.38439378710979,
        33.6266191009381
       ],
       [
        -84.38525752430752,
        33.62945660684761
       ],
       [
        -84.38799076333277,
        33.63216903903204
       ],
       [
        -84.38481355707556,
        33.63526002769103
       ],
       [
        -84.38264632366833,
        33.63688681994182
       ],
       [
        -84.37939652561252,
        33.63831015893316
       ],
       [
        -84.37903146250946,
        33.637894080341084
       ],
       [
        -84.37496316562317,
        33.63792826715927
       ],
       [
        -84.37205844162445,
        33.638345179576184
       ],
       [
        -84.37292217882218,
        33.64005118518619
       ],
       [
        -84.3728822007302,
        33.64292371173872
       ],
       [
        -84.37500103960504,
        33.642872014599014
       ],
       [
        -84.37533348900149,
        33.642445930108934
       ],
       [
        -84.37527246980846,
        33.644599699654705
       ],
       [
        -84.37029835352236,
        33.644468789155795
       ],
       [
        -84.36992697808898,
        33.646303203790204
       ],
       [
        -84.37141142776743,
        33.646294031717034
       ],
       [
        -84.37023838638439,
        33.648184312615314
       ]
      ]
     ],
     [
      [
       [
        -84.35088057342658,
        33.603232815823816
       ],
       [
        -84.35525817449818,
        33.60327867618968
       ],
       [
        -84.35564848692249,
        33.60595692155592
       ],
       [
        -84.35637124874324,
        33.606973354028355
       ],
       [
        -84.35079640902241,
        33.60688997154497
       ],
       [
        -84.35088057342658,
        33.603232815823816
       ]
      ]
     ]
    ]
   }
  },
  {
   "type": "Feature",
   "properties": {
    "name": "Irondale",
    "geoid": "1341347"
   },
   "geometry": {
    "type": "Polygon",
    "coordinates": [
     [
      [
       -84.33667888227887,
       33.47363559102659
      ],
      [
       -84.34014645573045,
       33.473029400372404
      ],
      [
       -84.34254408919409,
       33.47178616754517
      ],
      [
       -84.34502167884168,
       33.47082226603727
      ],
      [
       -84.34668602993403,
       33.4704778963809
      ],
      [
       -84.35252809163809,
       33.46829077384177
      ],
      [
       -84.35518242653443,
       33.46755367268867
      ],
      [
       -84.35949164402764,
       33.46489460529361
      ],
      [
       -84.36174304183903,
       33.46393403908504
      ],
      [
       -84.36562512498112,
       33.46301433029333
      ],
      [
       -84.36779656660856,
       33.463163584938584
      ],
      [
       -84.37172704428305,
       33.46384231835332
      ],
      [
       -84.37440557644558,
       33.463933205260204
      ],
      [
       -84.3748526998427,
       33.46439180891881
      ],
      [
       -84.37412257363657,
       33.466168689639694
      ],
      [
       -84.37528299035898,
       33.47021440773341
      ],
      [
       -84.37671904550504,
       33.47312695787796
      ],
      [
       -84.37737131963732,
       33.47602283152583
      ],
      [
       -84.3783087006887,
       33.477490363233365
      ],
      [
       -84.37909248170249,
       33.48094990246891
      ],
      [
       -84.38192987417787,
       33.48375322156022
      ],
      [
       -84.38335540877341,
       33.48790817070717
      ],
      [
       -84.38034547926948,
       33.48728613738114
      ],
      [
       -84.37695365378165,
       33.48733533304634
      ],
      [
       -84.36817635848236,
       33.48591866465367
      ],
      [
       -84.36587130586331,
       33.48619132537433
      ],
      [
       -84.3612391074691,
       33.48814164166065
      ],
      [
       -84.3573728051528,
       33.48918225505326
      ],
      [
       -84.3554023060403,
       33.48935318914419
      ],
      [
       -84.35342549459749,
       33.48920393449894
      ],
      [
       -84.35160964757765,
       33.48855938790239
      ],
      [
       -84.34952657857458,
       33.4871026959177
      ],
      [
       -84.34735934516735,
       33.486430633101634
      ],
      [
       -84.34030110782311,
       33.486177150352155
      ],
      [
       -84.33795081683681,
       33.478230799685804
      ],
      [
       -84.33667888227887,
       33.47363559102659
      ]
     ]
    ]
   }
  },
  {
   "type": "Feature",
   "properties": {
    "name": "Jonesboro",
    "geoid": "1342604"
   },
   "geometry": {
    "type": "Polygon",
    "coordinates": [
     [
      [
       -84.36760614464414,
       33.53731896270997
      ],
      [
       -84.36161258701259,
       33.53824700975001
      ],
      [
       -84.36064574841974,
       33.53771002655703
      ],
      [
       -84.35988721672722,
       33.53882318271018
      ],
      [
       -84.35863947943548,
       33.53904164481665
      ],
      [
       -84.35722130922531,
       33.53719138751039
      ],
      [
       -84.35243761490361,
       33.53710883885184
      ],
      [
       -84.35245023956423,
       33.53893074611375
      ],
      [
       -84.351718009248,
       33.5389124019674
      ],
      [
       -84.35093528028928,
       33.5419616993847
      ],
      [
       -84.35021567463367,
       33.54188915662416
      ],
      [
       -84.34977486356686,
       33.543590993109994
      ],
      [
       -84.34485755825355,
       33.54322827930728
      ],
      [
       -84.34575916943317,
       33.541431386790386
      ],
      [
       -84.35043345002944,
       33.536873700248705
      ],
      [
       -84.34961705530905,
       33.535894789893796
      ],
      [
       -84.34551509266109,
       33.53589729136829
      ],
      [
       -84.34576548176348,
       33.531011911666916
      ],
      [
       -84.34409481834082,
       33.532789626212626
      ],
      [
       -84.34215482882483,
       33.53276294381794
      ],
      [
       -84.34216008910009,
       33.5284970959681
      ],
      [
       -84.34335311952911,
       33.52821693082393
      ],
      [
       -84.34077768876169,
       33.52543362352863
      ],
      [
       -84.34218007814607,
       33.525492825091824
      ],
      [
       -84.34223478500878,
       33.52353417055717
      ],
      [
       -84.34523314190714,
       33.52356085295185
      ],
      [
       -84.34543408442208,
       33.51417532062232
      ],
      [
       -84.34606531745331,
       33.51299128935829
      ],
      [
       -84.34244203985403,
       33.51267026679727
      ],
      [
       -84.3424778097258,
       33.50962513850414
      ],
      [
       -84.34484072537272,
       33.50964181500082
      ],
      [
       -84.34356984286984,
       33.50721705238406
      ],
      [
       -84.3431164071424,
       33.50569698971199
      ],
      [
       -84.34555296664297,
       33.505198362461364
      ],
      [
       -84.34686803545803,
       33.50668423831524
      ],
      [
       -84.3495413073453,
       33.50667423241723
      ],
      [
       -84.34676493406293,
       33.502216604855604
      ],
      [
       -84.35151811878812,
       33.50163876424577
      ],
      [
       -84.35614084868685,
       33.50167461871362
      ],
      [
       -84.35371796590196,
       33.50383422503323
      ],
      [
       -84.3528636971997,
       33.50385840595341
      ],
      [
       -84.35351597133197,
       33.50475226617527
      ],
      [
       -84.35617346239346,
       33.503229702028705
      ],
      [
       -84.35752745724545,
       33.503294740365746
      ],
      [
       -84.35894247129048,
       33.5038950942461
      ],
      [
       -84.36065416486016,
       33.501699633458635
      ],
      [
       -84.36311386957186,
       33.50172464820365
      ],
      [
       -84.36461094391095,
       33.50064567886868
      ],
      [
       -84.36601017713018,
       33.500056998536
      ],
      [
       -84.36693493352094,
       33.501481171352175
      ],
      [
       -84.36445523976325,
       33.5025467994898
      ],
      [
       -84.36442788633188,
       33.505711164734166
      ],
      [
       -84.36508016046416,
       33.50571366620867
      ],
      [
       -84.36479505354505,
       33.507727353182354
      ],
      [
       -84.36420274655075,
       33.509329964512965
      ],
      [
       -84.36471614941615,
       33.50975271370372
      ],
      [
       -84.36765348712149,
       33.50979273729574
      ],
      [
       -84.36664877454677,
       33.51143703986804
      ],
      [
       -84.36441841783642,
       33.51138867802768
      ],
      [
       -84.36443314660714,
       33.50975104605405
      ],
      [
       -84.36296552980953,
       33.50973186808287
      ],
      [
       -84.36297184213984,
       33.51522510608811
      ],
      [
       -84.36592285656086,
       33.51494911006811
      ],
      [
       -84.3649938919499,
       33.516694305445306
      ],
      [
       -84.36555989756789,
       33.51713873408173
      ],
      [
       -84.36552833591634,
       33.51971358516859
      ],
      [
       -84.36513276321676,
       33.5204706981177
      ],
      [
       -84.36493602892203,
       33.52512427451528
      ],
      [
       -84.36411858214657,
       33.52510926566827
      ],
      [
       -84.36419643422043,
       33.52637417794118
      ],
      [
       -84.36673714717115,
       33.52619573942674
      ],
      [
       -84.36659406768406,
       33.52766493878394
      ],
      [
       -84.36444577126777,
       33.52726970581271
      ],
      [
       -84.36409754104554,
       33.52849292684393
      ],
      [
       -84.36488658233458,
       33.52866219328519
      ],
      [
       -84.36529057147457,
       33.53174400987101
      ],
      [
       -84.36496548646349,
       33.53317818858519
      ],
      [
       -84.3670233061453,
       33.53253530963831
      ],
      [
       -84.36760614464414,
       33.53731896270997
      ]
     ]
    ]
   }
  },
  {
   "type": "Feature",
   "properties": {
    "name": "Lake City",
    "geoid": "1344508"
   },
   "geometry": {
    "type": "Polygon",
    "coordinates": [
     [
      [
       -84.32921770784971,
       33.61193711326411
      ],
      [
       -84.32918825030825,
       33.610492094827094
      ],
      [
       -84.3236554927895,
       33.6104895933526
      ],
      [
       -84.32556918092918,
       33.60774797729898
      ],
      [
       -84.32638241948442,
       33.60773880522581
      ],
      [
       -84.3264245016865,
       33.60416503198803
      ],
      [
       -84.32620357012557,
       33.60111573457074
      ],
      [
       -84.32542189322189,
       33.60110823014723
      ],
      [
       -84.32543872610273,
       33.60033777600078
      ],
      [
       -84.32404475315874,
       33.59976577216477
      ],
      [
       -84.3233987913568,
       33.60022604347304
      ],
      [
       -84.32146827033627,
       33.60000841519142
      ],
      [
       -84.32147458266658,
       33.59949394526895
      ],
      [
       -84.31864876279676,
       33.59724595351695
      ],
      [
       -84.31903697111098,
       33.59647883466984
      ],
      [
       -84.32120736068336,
       33.59732266540167
      ],
      [
       -84.32118000725201,
       33.597806283805284
      ],
      [
       -84.33038654101254,
       33.59755863782964
      ],
      [
       -84.33339331435131,
       33.59779961320662
      ],
      [
       -84.33824223608623,
       33.59790133983634
      ],
      [
       -84.34401275804676,
       33.59815815788516
      ],
      [
       -84.34568657763458,
       33.60087392536893
      ],
      [
       -84.34967071011671,
       33.60289094764195
      ],
      [
       -84.35088057342658,
       33.603232815823816
      ],
      [
       -84.35079640902241,
       33.60688997154497
      ],
      [
       -84.35637124874324,
       33.606973354028355
      ],
      [
       -84.35564848692249,
       33.60595692155592
      ],
      [
       -84.35525817449818,
       33.60327867618968
      ],
      [
       -84.35752956135556,
       33.602950983029984
      ],
      [
       -84.36068677856677,
       33.60333871157771
      ],
      [
       -84.36291818733218,
       33.60383567117867
      ],
      [
       -84.36204813780414,
       33.60552083116783
      ],
      [
       -84.36088982519182,
       33.60548914582415
      ],
      [
       -84.36078567174167,
       33.61262001580302
      ],
      [
       -84.3580334957255,
       33.61268672178972
      ],
      [
       -84.35688149544349,
       33.612456586135586
      ],
      [
       -84.3528679054199,
       33.612347355082356
      ],
      [
       -84.35285317664918,
       33.615085635836635
      ],
      [
       -84.35313723151323,
       33.61567264851965
      ],
      [
       -84.35260383960184,
       33.616684911867914
      ],
      [
       -84.35023776778976,
       33.61590695329796
      ],
      [
       -84.34079978191778,
       33.61308028711129
      ],
      [
       -84.34077874081675,
       33.614294336069335
      ],
      [
       -84.33698187413387,
       33.61611040655741
      ],
      [
       -84.33572361629162,
       33.61611290803191
      ],
      [
       -84.33590562181563,
       33.61174033060333
      ],
      [
       -84.32921770784971,
       33.61193711326411
      ]
     ]
    ]
   }
  },
  {
   "type": "Feature",
   "properties": {
    "name": "Lovejoy",
    "geoid": "1347616"
   },
   "geometry": {
    "type": "MultiPolygon",
    "coordinates": [
     [
      [
       [
        -84.33704394538195,
        33.448760094759095
       ],
       [
        -84.33590983003583,
        33.448840141943144
       ],
       [
        -84.33599399443999,
        33.44286328553429
       ],
       [
        -84.33334071159871,
        33.44286328553429
       ],
       [
        -84.33334491981891,
        33.444013129980135
       ],
       [
        -84.3256280960121,
        33.444164052275056
       ],
       [
        -84.32754704442705,
        33.448219776266775
       ],
       [
        -84.32395532847933,
        33.44877176830677
       ],
       [
        -84.32460865466665,
        33.450719583118584
       ],
       [
        -84.32424674772875,
        33.450819642098644
       ],
       [
        -84.32312315293315,
        33.448812625723626
       ],
       [
        -84.32292431452831,
        33.4520978955689
       ],
       [
        -84.32021106454906,
        33.452232975191976
       ],
       [
        -84.3127803997164,
        33.452016180735185
       ],
       [
        -84.3107373088053,
        33.45340866820767
       ],
       [
        -84.3080735054135,
        33.45446429044729
       ],
       [
        -84.30417984966584,
        33.4549354014784
       ],
       [
        -84.30420404693204,
        33.45033935899436
       ],
       [
        -84.30259755886756,
        33.44934794126694
       ],
       [
        -84.2999832020632,
        33.44916616745317
       ],
       [
        -84.30072174470975,
        33.44847159136659
       ],
       [
        -84.298221009851,
        33.4478061991492
       ],
       [
        -84.2947565925646,
        33.447772012331015
       ],
       [
        -84.29474501995902,
        33.44664885027985
       ],
       [
        -84.295754992809,
        33.44592592414892
       ],
       [
        -84.29735516854316,
        33.445869224060225
       ],
       [
        -84.29802953583153,
        33.44410485071185
       ],
       [
        -84.2995202978403,
        33.44410318306218
       ],
       [
        -84.29951714167514,
        33.443420280523284
       ],
       [
        -84.29721314111114,
        33.44343612319513
       ],
       [
        -84.2961232120772,
        33.4427698971529
       ],
       [
        -84.29554563385364,
        33.44066282179782
       ],
       [
        -84.29679863142063,
        33.44038765960266
       ],
       [
        -84.29575183664383,
        33.4385865979616
       ],
       [
        -84.29654087793287,
        33.43631025616526
       ],
       [
        -84.29801796322596,
        33.4363311017861
       ],
       [
        -84.29801059884059,
        33.4373416974847
       ],
       [
        -84.3004219090199,
        33.43732085186385
       ],
       [
        -84.30040402408402,
        33.444020634403635
       ],
       [
        -84.30818607530408,
        33.444054821221826
       ],
       [
        -84.30839648631448,
        33.43552562699663
       ],
       [
        -84.30431135654736,
        33.43555230939131
       ],
       [
        -84.3041524962345,
        33.42947039105339
       ],
       [
        -84.30423034830835,
        33.42743335698436
       ],
       [
        -84.32338721875122,
        33.428027040266045
       ],
       [
        -84.32324203515404,
        33.43593837028937
       ],
       [
        -84.3450542925483,
        33.436075951386954
       ],
       [
        -84.34504798021798,
        33.437435085866085
       ],
       [
        -84.34372449496249,
        33.43882590568891
       ],
       [
        -84.34292703723304,
        33.43808296776197
       ],
       [
        -84.34291756873756,
        33.4390452016202
       ],
       [
        -84.33931533223934,
        33.43904436779537
       ],
       [
        -84.33928903086303,
        33.441389917052916
       ],
       [
        -84.33505556133356,
        33.441439112718115
       ],
       [
        -84.3350787065447,
        33.442168709447714
       ],
       [
        -84.33701764400564,
        33.44219289036789
       ],
       [
        -84.33704394538195,
        33.448760094759095
       ]
      ]
     ],
     [
      [
       [
        -84.30085325159125,
        33.47717267597168
       ],
       [
        -84.2986797058537,
        33.47750703973004
       ],
       [
        -84.29695959584359,
        33.476371370306374
       ],
       [
        -84.29699536571536,
        33.47542914824415
       ],
       [
        -84.30104262150061,
        33.476953380040385
       ],
       [
        -84.30085325159125,
        33.47717267597168
       ]
      ]
     ],
     [
      [
       [
        -84.31332641628842,
        33.46013263166763
       ],
       [
        -84.3099587880668,
        33.46017015378516
       ],
       [
        -84.31028702924303,
        33.45851918061418
       ],
       [
        -84.31332641628842,
        33.458524183563185
       ],
       [
        -84.31332641628842,
        33.46013263166763
       ]
      ]
     ],
     [
      [
       [
        -84.32220681298281,
        33.477666300273306
       ],
       [
        -84.31904643960644,
        33.47887034333335
       ],
       [
        -84.31596286624887,
        33.47902793622694
       ],
       [
        -84.31646995678396,
        33.476569820616824
       ],
       [
        -84.3206623961664,
        33.47594528581629
       ],
       [
        -84.32157452789653,
        33.476091205162206
       ],
       [
        -84.32220681298281,
        33.477666300273306
       ]
      ]
     ],
     [
      [
       [
        -84.32692527989128,
        33.45572336594637
       ],
       [
        -84.32657073733874,
        33.45588512796413
       ],
       [
        -84.32491059446659,
        33.45228884145585
       ],
       [
        -84.3259110988211,
        33.452072880823884
       ],
       [
        -84.32645395922796,
        33.454029033884034
       ],
       [
        -84.32692527989128,
        33.45572336594637
       ]
      ]
     ],
     [
      [
       [
        -84.32668225517425,
        33.45398400734301
       ],
       [
        -84.32610362489562,
        33.451923626178626
       ],
       [
        -84.32694421688221,
        33.45173935089036
       ],
       [
        -84.32670855655056,
        33.450943048174054
       ],
       [
        -84.32808043633844,
        33.45051696368397
       ],
       [
        -84.32917457359257,
        33.45077294790795
       ],
       [
        -84.32876216801216,
        33.448705062320066
       ],
       [
        -84.32825086925686,
        33.448166411477416
       ],
       [
        -84.32934395445595,
        33.44805134365035
       ],
       [
        -84.3304444040404,
        33.45212791326291
       ],
       [
        -84.32907252425252,
        33.45247228291929
       ],
       [
        -84.3292881955382,
        33.45355792285292
       ],
       [
        -84.32668225517425,
        33.45398400734301
       ]
      ]
     ],
     [
      [
       [
        -84.33056013009613,
        33.44805634659935
       ],
       [
        -84.3298321080001,
        33.447999646510645
       ],
       [
        -84.329931001175,
        33.44688565653266
       ],
       [
        -84.33062325339925,
        33.44708660831761
       ],
       [
        -84.33056013009613,
        33.44805634659935
       ]
      ]
     ],
     [
      [
       [
        -84.33511026819626,
        33.45824068311968
       ],
       [
        -84.33474836125836,
        33.4586575955366
       ],
       [
        -84.33084523701524,
        33.45938385696686
       ],
       [
        -84.32951333531933,
        33.4597890958361
       ],
       [
        -84.32746288002288,
        33.45653717898418
       ],
       [
        -84.33323761020361,
        33.45415160613461
       ],
       [
        -84.33336490886491,
        33.453502890413894
       ],
       [
        -84.3348262133322,
        33.45656886432786
       ],
       [
        -84.33401087066687,
        33.4562912006582
       ],
       [
        -84.33398667340067,
        33.45723175507076
       ],
       [
        -84.33466104068904,
        33.45845414227715
       ],
       [
        -84.33511026819626,
        33.45824068311968
       ]
      ]
     ],
     [
      [
       [
        -84.33572466834667,
        33.46848338737839
       ],
       [
        -84.3356362957223,
        33.46798726160226
       ],
       [
        -84.33572466834667,
        33.46848338737839
       ],
       [
        -84.33572466834667,
        33.46848338737839
       ]
      ]
     ],
     [
      [
       [
        -84.33968775972775,
        33.44897772304073
       ],
       [
        -84.33757733729334,
        33.448785109504115
       ],
       [
        -84.33789926613926,
        33.44749685013585
       ],
       [
        -84.33966145835146,
        33.44759690911591
       ],
       [
        -84.33968775972775,
        33.44897772304073
       ]
      ]
     ],
     [
      [
       [
        -84.342785009801,
        33.449914942153946
       ],
       [
        -84.3417845054465,
        33.449905770080775
       ],
       [
        -84.3415498971699,
        33.44897772304073
       ],
       [
        -84.3415498971699,
        33.44820726889427
       ],
       [
        -84.34332576609776,
        33.44814973498074
       ],
       [
        -84.34524366245766,
        33.44861917836218
       ],
       [
        -84.34512793640194,
        33.449211193994195
       ],
       [
        -84.34275765636966,
        33.448972720091724
       ],
       [
        -84.342785009801,
        33.449914942153946
       ]
      ]
     ]
    ]
   }
  },
  {
   "type": "Feature",
   "properties": {
    "name": "Morrow",
    "geoid": "1353004"
   },
   "geometry": {
    "type": "Polygon",
    "coordinates": [
     [
      [
       -84.356225013091,
       33.58834070429171
      ],
      [
       -84.35302676573276,
       33.587499375034376
      ],
      [
       -84.35302781778782,
       33.59142168705269
      ],
      [
       -84.35140765300766,
       33.59153425340526
      ],
      [
       -84.35189159833159,
       33.5925706976737
      ],
      [
       -84.35162648045848,
       33.594846205645204
      ],
      [
       -84.35088372959173,
       33.596077764924765
      ],
      [
       -84.35174641473441,
       33.597838802973804
      ],
      [
       -84.34387178266978,
       33.59793802812903
      ],
      [
       -84.34401275804676,
       33.59815815788516
      ],
      [
       -84.33824223608623,
       33.59790133983634
      ],
      [
       -84.33339331435131,
       33.59779961320662
      ],
      [
       -84.33038654101254,
       33.59755863782964
      ],
      [
       -84.33038548895749,
       33.59691492505793
      ],
      [
       -84.32700839224039,
       33.596838213173214
      ],
      [
       -84.32709466075465,
       33.5951146972417
      ],
      [
       -84.3308063109783,
       33.595102189869195
      ],
      [
       -84.33062325339925,
       33.588459941242945
      ],
      [
       -84.32907778452778,
       33.58844826769527
      ],
      [
       -84.32914301194101,
       33.5849828916859
      ],
      [
       -84.3250925999906,
       33.58491285039985
      ],
      [
       -84.324857991714,
       33.58527473037773
      ],
      [
       -84.32561652340652,
       33.5866964017194
      ],
      [
       -84.32488324103524,
       33.58832486161987
      ],
      [
       -84.32451081354681,
       33.58694571534472
      ],
      [
       -84.32477172319972,
       33.58586674600975
      ],
      [
       -84.32358816126616,
       33.585527379302384
      ],
      [
       -84.32249928428729,
       33.585816716519716
      ],
      [
       -84.32296955289556,
       33.588635044458044
      ],
      [
       -84.32144302101501,
       33.58899108766209
      ],
      [
       -84.32145354156555,
       33.58712081855982
      ],
      [
       -84.32218261571661,
       33.58686733581034
      ],
      [
       -84.32146195800595,
       33.58569414426915
      ],
      [
       -84.32019949194348,
       33.58606102719603
      ],
      [
       -84.32019738783339,
       33.58674893268393
      ],
      [
       -84.31888021490822,
       33.587108311187315
      ],
      [
       -84.3188497053117,
       33.58793463159763
      ],
      [
       -84.31773557901158,
       33.58819978789479
      ],
      [
       -84.31676453219853,
       33.587877931508935
      ],
      [
       -84.31708014871415,
       33.587115815610815
      ],
      [
       -84.31430903570704,
       33.5868047989478
      ],
      [
       -84.31355681634481,
       33.585072944767944
      ],
      [
       -84.31617748547949,
       33.5847711001781
      ],
      [
       -84.31619011014011,
       33.58379302364803
      ],
      [
       -84.31789864754465,
       33.58390559000059
      ],
      [
       -84.31791022015022,
       33.58299922240622
      ],
      [
       -84.31904959577159,
       33.58261733063233
      ],
      [
       -84.31872766692567,
       33.585367284934286
      ],
      [
       -84.320998001728,
       33.585294742173744
      ],
      [
       -84.32146721828121,
       33.58460016608717
      ],
      [
       -84.32267076926077,
       33.5841965948676
      ],
      [
       -84.32333251188851,
       33.585108799235805
      ],
      [
       -84.32496845749445,
       33.58500290348191
      ],
      [
       -84.32470333962134,
       33.58090382059882
      ],
      [
       -84.32408052303052,
       33.57838066665167
      ],
      [
       -84.3266506935227,
       33.578377331352335
      ],
      [
       -84.32701154840555,
       33.5771265941016
      ],
      [
       -84.32820563088963,
       33.57703070424571
      ],
      [
       -84.32745235947236,
       33.5765028931259
      ],
      [
       -84.3250705068345,
       33.57650039165139
      ],
      [
       -84.32584376729777,
       33.57710491465592
      ],
      [
       -84.324151010719,
       33.577511821174824
      ],
      [
       -84.32365654484454,
       33.577047380742385
      ],
      [
       -84.32316313102513,
       33.578364823979825
      ],
      [
       -84.32150088404288,
       33.578123014778015
      ],
      [
       -84.32147984294184,
       33.57690896581997
      ],
      [
       -84.3208181003141,
       33.57600676734977
      ],
      [
       -84.32154401830002,
       33.575703255110255
      ],
      [
       -84.32161871420871,
       33.574093139356144
      ],
      [
       -84.32236672535072,
       33.574245729300735
      ],
      [
       -84.32234673630474,
       33.575883361274364
      ],
      [
       -84.3246822985203,
       33.57661379182879
      ],
      [
       -84.3263477016677,
       33.57595173491074
      ],
      [
       -84.32635717016316,
       33.57526382942283
      ],
      [
       -84.32821930760531,
       33.576014271773275
      ],
      [
       -84.32941128597929,
       33.57600093057593
      ],
      [
       -84.32954068875068,
       33.57768108761609
      ],
      [
       -84.33006671627672,
       33.57648871810372
      ],
      [
       -84.33059063969264,
       33.57649121957822
      ],
      [
       -84.33050647528847,
       33.574762700697704
      ],
      [
       -84.32823508843109,
       33.57473601830302
      ],
      [
       -84.32772799789599,
       33.57327682484383
      ],
      [
       -84.32774588283188,
       33.570154150841155
      ],
      [
       -84.32730401971001,
       33.56953628663929
      ],
      [
       -84.32412786550786,
       33.56713487111787
      ],
      [
       -84.32290222137222,
       33.56650866866767
      ],
      [
       -84.32259291718691,
       33.565849947048946
      ],
      [
       -84.32331041873242,
       33.564709274676275
      ],
      [
       -84.32500633147633,
       33.56361613031913
      ],
      [
       -84.32551131790132,
       33.56414394143894
      ],
      [
       -84.32774903899704,
       33.56251464771365
      ],
      [
       -84.32818248567848,
       33.56178338333439
      ],
      [
       -84.33316291429492,
       33.56501778986479
      ],
      [
       -84.33313345675346,
       33.56659622027522
      ],
      [
       -84.33776144692744,
       33.566873883944886
      ],
      [
       -84.34375395250395,
       33.56688472366773
      ],
      [
       -84.3433930976211,
       33.56825386404487
      ],
      [
       -84.34763813975614,
       33.56826803906704
      ],
      [
       -84.3474592903973,
       33.57141406016506
      ],
      [
       -84.34880907702907,
       33.57144908080808
      ],
      [
       -84.34884379484579,
       33.569967374078374
      ],
      [
       -84.35128351051151,
       33.5700023947214
      ],
      [
       -84.35126352146553,
       33.57156498245998
      ],
      [
       -84.3529731109251,
       33.57177093719394
      ],
      [
       -84.35299941230141,
       33.56968387363487
      ],
      [
       -84.35418613040012,
       33.56969721483222
      ],
      [
       -84.3541472043632,
       33.57189684474385
      ],
      [
       -84.35792829022029,
       33.57228790859091
      ],
      [
       -84.35750957230957,
       33.574078964333964
      ],
      [
       -84.35710242700442,
       33.57372959172859
      ],
      [
       -84.35654062960663,
       33.57502869081969
      ],
      [
       -84.35638387340387,
       33.57986487485588
      ],
      [
       -84.35295312187912,
       33.579132776651775
      ],
      [
       -84.35291419584219,
       33.579402102073104
      ],
      [
       -84.35509615802016,
       33.584248292007295
      ],
      [
       -84.35523923750723,
       33.5852738965529
      ],
      [
       -84.35619345143945,
       33.58700491690792
      ],
      [
       -84.356225013091,
       33.58834070429171
      ]
     ]
    ]
   }
  },
  {
   "type": "Feature",
   "properties": {
    "name": "Riverdale",
    "geoid": "1365464"
   },
   "geometry": {
    "type": "Polygon",
    "coordinates": [
     [
      [
       -84.4342412075312,
       33.576417842992846
      ],
      [
       -84.43233383172183,
       33.57752182707283
      ],
      [
       -84.4292428939789,
       33.57650872989973
      ],
      [
       -84.4292670912451,
       33.5770231998222
      ],
      [
       -84.42788048268648,
       33.57704321161821
      ],
      [
       -84.42664852622052,
       33.577562684489685
      ],
      [
       -84.42735550721551,
       33.57887679242779
      ],
      [
       -84.42428771468371,
       33.5788325997116
      ],
      [
       -84.42431191194991,
       33.58236134640835
      ],
      [
       -84.42677687693687,
       33.58086713230613
      ],
      [
       -84.42773950730951,
       33.581523352450354
      ],
      [
       -84.42927761179561,
       33.58123484905785
      ],
      [
       -84.43027285587486,
       33.58202197970098
      ],
      [
       -84.42922185287784,
       33.58399480925781
      ],
      [
       -84.42900092131693,
       33.58838322935823
      ],
      [
       -84.4283255019735,
       33.58835904843805
      ],
      [
       -84.4283255019735,
       33.58741015577716
      ],
      [
       -84.42519248202848,
       33.587516051531054
      ],
      [
       -84.42442553389553,
       33.586974065389064
      ],
      [
       -84.4243319009959,
       33.58332691556592
      ],
      [
       -84.4191358010938,
       33.58325437280538
      ],
      [
       -84.41892118186318,
       33.58361958808259
      ],
      [
       -84.41686546629147,
       33.58136159043259
      ],
      [
       -84.41623423326023,
       33.58137826692927
      ],
      [
       -84.41629630450831,
       33.58258397763898
      ],
      [
       -84.4146550986271,
       33.58260398943499
      ],
      [
       -84.41467824383824,
       33.584069853492856
      ],
      [
       -84.41737150477151,
       33.58410987708488
      ],
      [
       -84.41708113757714,
       33.585907603426605
      ],
      [
       -84.41043530581331,
       33.58580671062171
      ],
      [
       -84.40964626452427,
       33.587115815610815
      ],
      [
       -84.4056431950512,
       33.5870832964423
      ],
      [
       -84.4056758087578,
       33.58443840406941
      ],
      [
       -84.40440387419987,
       33.584149900676906
      ],
      [
       -84.40399252067452,
       33.58313096672997
      ],
      [
       -84.40134555016355,
       33.583069263692266
      ],
      [
       -84.40028192250593,
       33.58356538946839
      ],
      [
       -84.39995052516453,
       33.58303007392507
      ],
      [
       -84.39998208681608,
       33.58738680868181
      ],
      [
       -84.3988143057083,
       33.587385141032144
      ],
      [
       -84.39881640981841,
       33.58273406610907
      ],
      [
       -84.40000733613734,
       33.58279076619777
      ],
      [
       -84.40002416901817,
       33.57862414350315
      ],
      [
       -84.3966418120258,
       33.578126350077355
      ],
      [
       -84.3935855920996,
       33.57808215736116
      ],
      [
       -84.39298486866487,
       33.57658794325894
      ],
      [
       -84.3959969022789,
       33.57447002818103
      ],
      [
       -84.39743400948001,
       33.57409063788164
      ],
      [
       -84.40063856916856,
       33.573891353746355
      ],
      [
       -84.4029857039897,
       33.57315758789259
      ],
      [
       -84.40443543585144,
       33.572253721772725
      ],
      [
       -84.39219477532077,
       33.57217867753768
      ],
      [
       -84.39219477532077,
       33.569843134178136
      ],
      [
       -84.40073535823336,
       33.56993735638436
      ],
      [
       -84.40073746234346,
       33.569191916982916
      ],
      [
       -84.39955705657505,
       33.56866160438861
      ],
      [
       -84.39716363133164,
       33.56685303832404
      ],
      [
       -84.39794846440046,
       33.5657724013394
      ],
      [
       -84.40027034990035,
       33.56638693024193
      ],
      [
       -84.40024299646899,
       33.56602171496472
      ],
      [
       -84.40237972027973,
       33.566073412104416
      ],
      [
       -84.40128768713569,
       33.56444495220396
      ],
      [
       -84.40625549109149,
       33.56432404760305
      ],
      [
       -84.40537807717807,
       33.56313084426585
      ],
      [
       -84.4029067998608,
       33.56311333394434
      ],
      [
       -84.40283105189705,
       33.55972883894384
      ],
      [
       -84.40215247638848,
       33.55884164932065
      ],
      [
       -84.39984005938406,
       33.5586973976244
      ],
      [
       -84.39952339081339,
       33.55557972657073
      ],
      [
       -84.40096260212461,
       33.55559723689224
      ],
      [
       -84.4012961035761,
       33.553158299253305
      ],
      [
       -84.40196205442405,
       33.55014068717969
      ],
      [
       -84.39518681988882,
       33.54999476783377
      ],
      [
       -84.39522048565048,
       33.548406331525335
      ],
      [
       -84.39955916068516,
       33.54848971400872
      ],
      [
       -84.39962228398828,
       33.542799693342694
      ],
      [
       -84.39794951645551,
       33.542356932355936
      ],
      [
       -84.39795582878583,
       33.54158397673498
      ],
      [
       -84.39699951074351,
       33.54120625408525
      ],
      [
       -84.39402114289115,
       33.54116706431807
      ],
      [
       -84.39399484151484,
       33.54172906225607
      ],
      [
       -84.39001176108776,
       33.54109535538236
      ],
      [
       -84.39030002417202,
       33.53764081909582
      ],
      [
       -84.39550033229433,
       33.53773587512688
      ],
      [
       -84.39559606930406,
       33.53333411382911
      ],
      [
       -84.39075030373431,
       33.53326323871824
      ],
      [
       -84.39083552019352,
       33.52631080725381
      ],
      [
       -84.39113009560809,
       33.52556036490337
      ],
      [
       -84.39301117004116,
       33.525567035502036
      ],
      [
       -84.39302063853664,
       33.52343577922678
      ],
      [
       -84.39551821723022,
       33.52355418235319
      ],
      [
       -84.39709314364315,
       33.522899629858635
      ],
      [
       -84.39765283693083,
       33.5237517988388
      ],
      [
       -84.3996065031625,
       33.52320897887198
      ],
      [
       -84.39912255783855,
       33.522548589603595
      ],
      [
       -84.39977693608094,
       33.52185067821768
      ],
      [
       -84.40117932546532,
       33.521338709769715
      ],
      [
       -84.4019304927725,
       33.52395275062375
      ],
      [
       -84.40117932546532,
       33.52592474635575
      ],
      [
       -84.39809996032795,
       33.52563374148875
      ],
      [
       -84.39799054660254,
       33.52885897594598
      ],
      [
       -84.39859863442263,
       33.5299737997488
      ],
      [
       -84.39805051374051,
       33.5301905942056
      ],
      [
       -84.39921408662809,
       33.53129207681108
      ],
      [
       -84.39971907305308,
       33.53094187038087
      ],
      [
       -84.40081426236226,
       33.53224096947197
      ],
      [
       -84.40015567589967,
       33.53241523886224
      ],
      [
       -84.40049128146129,
       33.533349956500956
      ],
      [
       -84.40031138004738,
       33.539822938685944
      ],
      [
       -84.40110042133642,
       33.54102864939565
      ],
      [
       -84.40290048753049,
       33.540920252167254
      ],
      [
       -84.40289522725523,
       33.54163734152434
      ],
      [
       -84.40158962693563,
       33.54163734152434
      ],
      [
       -84.4035538137178,
       33.54434226928527
      ],
      [
       -84.40365165483766,
       33.5451810970681
      ],
      [
       -84.40469003317403,
       33.54584398781099
      ],
      [
       -84.41083193056792,
       33.5474907918578
      ],
      [
       -84.4153484029064,
       33.549965583964585
      ],
      [
       -84.41484762470162,
       33.55131137724638
      ],
      [
       -84.41205126237327,
       33.551397261204265
      ],
      [
       -84.41208071991471,
       33.55041418172518
      ],
      [
       -84.41031431948232,
       33.55053592015092
      ],
      [
       -84.41029643454644,
       33.556751250462256
      ],
      [
       -84.41282452283652,
       33.55701140381041
      ],
      [
       -84.4123510980631,
       33.55793111260211
      ],
      [
       -84.41375348744748,
       33.557850231593235
      ],
      [
       -84.41404806286207,
       33.55517115240215
      ],
      [
       -84.41300758041558,
       33.55465334718035
      ],
      [
       -84.41309174481974,
       33.55265466905367
      ],
      [
       -84.41150629785629,
       33.552616313111315
      ],
      [
       -84.41154627594827,
       33.5521351961822
      ],
      [
       -84.41369457236458,
       33.55216938300038
      ],
      [
       -84.41578816191816,
       33.55249540851041
      ],
      [
       -84.4157544961565,
       33.55600664488565
      ],
      [
       -84.41607852911253,
       33.55664285323385
      ],
      [
       -84.41932096278296,
       33.55668204300105
      ],
      [
       -84.4193135983976,
       33.557520870783875
      ],
      [
       -84.4219795058995,
       33.5579552935223
      ],
      [
       -84.4230220924561,
       33.558587332746335
      ],
      [
       -84.42281062939063,
       33.560500960739965
      ],
      [
       -84.42240348408548,
       33.56046760774661
      ],
      [
       -84.42222884294684,
       33.56197683069583
      ],
      [
       -84.42511042173442,
       33.56224698994199
      ],
      [
       -84.42780894294295,
       33.56380540855641
      ],
      [
       -84.42665483855083,
       33.56516621068521
      ],
      [
       -84.42458229009829,
       33.56599086344587
      ],
      [
       -84.4245928106488,
       33.56468175845676
      ],
      [
       -84.42244661834262,
       33.565317132980134
      ],
      [
       -84.4224382019022,
       33.567952853279856
      ],
      [
       -84.4240751995632,
       33.56669794690495
      ],
      [
       -84.4248673970174,
       33.56778358683859
      ],
      [
       -84.42590893151893,
       33.5678577972488
      ],
      [
       -84.42588894247294,
       33.5661642990113
      ],
      [
       -84.42908508572108,
       33.566184310807316
      ],
      [
       -84.42925972685973,
       33.57067529136229
      ],
      [
       -84.43401396363996,
       33.57062692952193
      ],
      [
       -84.4342412075312,
       33.576417842992846
      ]
     ]
    ]
   }
  }
 ]
}
