{
 "type": "FeatureCollection",
 "features": [
  {
   "type": "Feature",
   "properties": {
    "name": "City of Fairfax",
    "geoid": "5126496"
   },
   "geometry": {
    "type": "Polygon",
    "coordinates": [
     [
      [
       -77.32878758381058,
       38.86484800681601
      ],
      [
       -77.31724186836587,
       38.866900697038695
      ],
      [
       -77.31426803768403,
       38.867002963390966
      ],
      [
       -77.31188064502464,
       38.866731343959344
      ],
      [
       -77.30962684919285,
       38.865580233898235
      ],
      [
       -77.30757605113806,
       38.86317492929293
      ],
      [
       -77.30475403503303,
       38.863382734520734
      ],
      [
       -77.30313872793573,
       38.86920782594583
      ],
      [
       -77.30053532482133,
       38.869881965739964
      ],
      [
       -77.29740707702707,
       38.87044238535039
      ],
      [
       -77.29248741722641,
       38.87169167110967
      ],
      [
       -77.29186801375302,
       38.87109198121998
      ],
      [
       -77.2906986077556,
       38.87099707804508
      ],
      [
       -77.29165894339295,
       38.86749793253593
      ],
      [
       -77.27414995137094,
       38.86631000658801
      ],
      [
       -77.27059662276162,
       38.8660752030432
      ],
      [
       -77.26993991627792,
       38.86504026755827
      ],
      [
       -77.26888241931142,
       38.862694686502685
      ],
      [
       -77.2686239007749,
       38.85993267686068
      ],
      [
       -77.26980892198593,
       38.855593311001314
      ],
      [
       -77.26884164625365,
       38.8544152026232
      ],
      [
       -77.26924417176018,
       38.853709973857974
      ],
      [
       -77.26900560599661,
       38.85230197071997
      ],
      [
       -77.26938123863523,
       38.8517300972781
      ],
      [
       -77.27097225540025,
       38.851303851121855
      ],
      [
       -77.27174434096234,
       38.84848784484585
      ],
      [
       -77.26997721928822,
       38.84333934760735
      ],
      [
       -77.27052028171728,
       38.84090213590014
      ],
      [
       -77.27859768471568,
       38.841977159795164
      ],
      [
       -77.27853522386123,
       38.840676331794334
      ],
      [
       -77.28637406109605,
       38.841716994195
      ],
      [
       -77.28647035491335,
       38.8386170965251
      ],
      [
       -77.28734740941141,
       38.838631004749004
      ],
      [
       -77.2872571881772,
       38.8361217975298
      ],
      [
       -77.28829473237073,
       38.836234699582704
      ],
      [
       -77.28839623125923,
       38.83652186349986
      ],
      [
       -77.29062833929434,
       38.83651695471496
      ],
      [
       -77.29673475532975,
       38.83731381413182
      ],
      [
       -77.29716157116857,
       38.83498377756178
      ],
      [
       -77.30023776825077,
       38.83504022858823
      ],
      [
       -77.30228422874623,
       38.83533966446767
      ],
      [
       -77.30132562813263,
       38.8331028948109
      ],
      [
       -77.30306672445073,
       38.83282227594027
      ],
      [
       -77.30396199669799,
       38.83608089098889
      ],
      [
       -77.30785886000686,
       38.83574218483019
      ],
      [
       -77.30804884510584,
       38.836880204798206
      ],
      [
       -77.31036076423277,
       38.83664785564586
      ],
      [
       -77.31198821649622,
       38.83676893900694
      ],
      [
       -77.31192315310615,
       38.835707823335824
      ],
      [
       -77.31273514421414,
       38.83630587696388
      ],
      [
       -77.31410581296481,
       38.835823997912
      ],
      [
       -77.31622427694528,
       38.83640814331614
      ],
      [
       -77.31868887816088,
       38.8346507983188
      ],
      [
       -77.31875480906281,
       38.84201397568198
      ],
      [
       -77.32269157791758,
       38.84319617471417
      ],
      [
       -77.32588922666123,
       38.846988211056214
      ],
      [
       -77.33124697995498,
       38.847332644130645
      ],
      [
       -77.33053909027109,
       38.84780797813598
      ],
      [
       -77.33046101420301,
       38.848878911376914
      ],
      [
       -77.33155841671541,
       38.85174564176364
      ],
      [
       -77.334821996361,
       38.85149202121002
      ],
      [
       -77.33485235927635,
       38.85373697217497
      ],
      [
       -77.33249099197299,
       38.857880804768804
      ],
      [
       -77.32881274165474,
       38.86389324815125
      ],
      [
       -77.32878758381058,
       38.86484800681601
      ]
     ],
     [
      [
       -77.31647672289873,
       38.84614635444436
      ],
      [
       -77.316488000553,
       38.84500506195306
      ],
      [
       -77.3087654099084,
       38.842840287808286
      ],
      [
       -77.3066053053583,
       38.846259256497255
      ],
      [
       -77.30818330944531,
       38.84666995816796
      ],
      [
       -77.30844703305303,
       38.84616271706072
      ],
      [
       -77.3106054025794,
       38.84683522059322
      ],
      [
       -77.31177914613615,
       38.846598780786785
      ],
      [
       -77.3120741001711,
       38.845518029976034
      ],
      [
       -77.31498807253408,
       38.84545667016467
      ],
      [
       -77.31467923830924,
       38.84617008023808
      ],
      [
       -77.31647672289873,
       38.84614635444436
      ]
     ]
    ]
   }
  }
 ]
}
