{
 "type": "FeatureCollection",
 "features": [
  {
   "type": "Feature",
   "properties": {
    "name": "City of Falls Church",
    "geoid": "5127200"
   },
   "geometry": {
    "type": "Polygon",
    "coordinates": [
     [
      [
       -77.18881974905875,
       38.89626586649387
      ],
      [
       -77.1722762977453,
       38.89324532751333
      ],
      [
       -77.15384167056067,
       38.87885113389913
      ],
      [
       -77.14970103641704,
       38.87567024127824
      ],
      [
       -77.14978865511566,
       38.873362294240295
      ],
      [
       -77.1514403977114,
       38.87343183535984
      ],
      [
       -77.15371067626867,
       38.872715152763156
      ],
      [
       -77.15590634880535,
       38.872625976503976
      ],
      [
       -77.15827118615618,
       38.874376776454774
      ],
      [
       -77.1575017031297,
       38.87351773909574
      ],
      [
       -77.15839784288885,
       38.87317576041376
      ],
      [
       -77.1732427059657,
       38.87860405839206
      ],
      [
       -77.17902814261014,
       38.87941973481774
      ],
      [
       -77.17932222913323,
       38.879188203796204
      ],
      [
       -77.18756098933899,
       38.87878813782614
      ],
      [
       -77.18975405934006,
       38.87813608756409
      ],
      [
       -77.19426338602739,
       38.88609404603205
      ],
      [
       -77.1909599008359,
       38.89231511277311
      ],
      [
       -77.19226984375584,
       38.89278308360108
      ],
      [
       -77.19146566025466,
       38.89358566993367
      ],
      [
       -77.19069097215697,
       38.892822353880355
      ],
      [
       -77.18985382320483,
       38.8943948013128
      ],
      [
       -77.19376803675104,
       38.89696209582009
      ],
      [
       -77.19484201644302,
       38.89797085111885
      ],
      [
       -77.19479690582591,
       38.8989836970717
      ],
      [
       -77.19275565040165,
       38.89977401144201
      ],
      [
       -77.19146392523092,
       38.89988282284082
      ],
      [
       -77.19052527739028,
       38.898779982497985
      ],
      [
       -77.19143182729182,
       38.89779904364705
      ],
      [
       -77.18881974905875,
       38.89626586649387
      ]
     ]
    ]
   }
  }
 ]
}
