{
 "type": "FeatureCollection",
 "features": [
  {
   "type": "Feature",
   "properties": {
    "name": "Washington, DC",
    "geoid": "1150000"
   },
   "geometry": {
    "type": "Polygon",
    "coordinates": [
     [
      [
       -77.119751006084,
       38.93434990430491
      ],
      [
       -77.11886094664794,
       38.935355998711
      ],
      [
       -77.11691001041301,
       38.936769064124064
      ],
      [
       -77.112578990874,
       38.94022801138301
      ],
      [
       -77.10251507137008,
       38.94790491805992
      ],
      [
       -77.10062493096993,
       38.94916401651902
      ],
      [
       -77.09155204668305,
       38.95621402856903
      ],
      [
       -77.07755995893297,
       38.967177945932946
      ],
      [
       -77.05434394395694,
       38.985298059453065
      ],
      [
       -77.05045490382591,
       38.988171973126974
      ],
      [
       -77.04651306177607,
       38.99132400747901
      ],
      [
       -77.04255607335907,
       38.99428695244195
      ],
      [
       -77.04088197905698,
       38.995845
      ],
      [
       -77.03682506669007,
       38.99270501346002
      ],
      [
       -77.03497994465894,
       38.99109101504602
      ],
      [
       -77.02314705569205,
       38.98183890799391
      ],
      [
       -77.01949804340704,
       38.97908506404006
      ],
      [
       -77.0109190989821,
       38.97244304399805
      ],
      [
       -77.00651592383292,
       38.96886096401597
      ],
      [
       -76.98469106060605,
       38.951824949379954
      ],
      [
       -76.97893102340002,
       38.947256990811994
      ],
      [
       -76.973906005733,
       38.94338004573505
      ],
      [
       -76.95788199075699,
       38.93084603300104
      ],
      [
       -76.94394691224991,
       38.92017391772892
      ],
      [
       -76.93705804995905,
       38.914819992575
      ],
      [
       -76.93404602655902,
       38.912183972138976
      ],
      [
       -76.909393,
       38.892851930406934
      ],
      [
       -76.96208805276704,
       38.851802992757996
      ],
      [
       -76.99668509009008,
       38.82480200815701
      ],
      [
       -77.00007198607699,
       38.822208052963056
      ],
      [
       -77.00661795144495,
       38.81694805990306
      ],
      [
       -77.03900593319293,
       38.791645
      ],
      [
       -77.03919105545805,
       38.80049605785106
      ],
      [
       -77.03805591938692,
       38.80596903172403
      ],
      [
       -77.03728808271909,
       38.81052698448199
      ],
      [
       -77.03743702199603,
       38.81493893409394
      ],
      [
       -77.03841206938107,
       38.81609001064501
      ],
      [
       -77.03908292722592,
       38.81881996317497
      ],
      [
       -77.0388670914941,
       38.81932903428404
      ],
      [
       -77.04004409044109,
       38.82065306840807
      ],
      [
       -77.03944391564292,
       38.82145598361099
      ],
      [
       -77.04086704305604,
       38.82223602839103
      ],
      [
       -77.0410671013221,
       38.823257029412034
      ],
      [
       -77.03878399684099,
       38.824473041628046
      ],
      [
       -77.03866598139697,
       38.8256719010269
      ],
      [
       -77.03776393108693,
       38.82921293676794
      ],
      [
       -77.03786806236106,
       38.830539012894015
      ],
      [
       -77.03922892137592,
       38.83219405554906
      ],
      [
       -77.04171208412308,
       38.83363407538908
      ],
      [
       -77.042579003276,
       38.83333206328707
      ],
      [
       -77.04195905405405,
       38.83158696834197
      ],
      [
       -77.04327405323505,
       38.83150896386397
      ],
      [
       -77.04384204200304,
       38.833195044950045
      ],
      [
       -77.04499106224407,
       38.83529401884902
      ],
      [
       -77.04540905990406,
       38.83874602330103
      ],
      [
       -77.04651306177607,
       38.83989403684904
      ],
      [
       -77.04585209114309,
       38.840011043566044
      ],
      [
       -77.04801991494091,
       38.841260953015954
      ],
      [
       -77.04582895085996,
       38.841051035206036
      ],
      [
       -77.04476702223002,
       38.84022096137596
      ],
      [
       -77.04340595284896,
       38.840558095913096
      ],
      [
       -77.04306494922194,
       38.839794999750005
      ],
      [
       -77.03997509032409,
       38.83927694383195
      ],
      [
       -77.03680403006904,
       38.83940497735998
      ],
      [
       -77.034624005031,
       38.840060051615055
      ],
      [
       -77.03394304960806,
       38.84264604300105
      ],
      [
       -77.03307907558208,
       38.84451590427091
      ],
      [
       -77.03253001977302,
       38.84685501761002
      ],
      [
       -77.03214294594595,
       38.85028701044201
      ],
      [
       -77.03226895530595,
       38.85231798567299
      ],
      [
       -77.03284304469405,
       38.85502690558191
      ],
      [
       -77.03541203685504,
       38.85977292672793
      ],
      [
       -77.03748603732303,
       38.86118109133609
      ],
      [
       -77.03818298057799,
       38.86335398570899
      ],
      [
       -77.03979207172107,
       38.86321900937401
      ],
      [
       -77.04036994770095,
       38.86237504993005
      ],
      [
       -77.04252893611793,
       38.86370092185592
      ],
      [
       -77.04041601790102,
       38.86369602105103
      ],
      [
       -77.03827406914706,
       38.864020903575906
      ],
      [
       -77.0377388975079,
       38.86478093673594
      ],
      [
       -77.0382908984439,
       38.86744207379708
      ],
      [
       -77.0402268986779,
       38.87090796386297
      ],
      [
       -77.04327405323505,
       38.874053055408055
      ],
      [
       -77.04543893190593,
       38.875430998386
      ],
      [
       -77.04627597905697,
       38.87558700734201
      ],
      [
       -77.0472079013689,
       38.87499891075392
      ],
      [
       -77.04639399450099,
       38.87396606612107
      ],
      [
       -77.046240006435,
       38.87245498460999
      ],
      [
       -77.04699900772201,
       38.87179807255308
      ],
      [
       -77.04948406376506,
       38.87135495810996
      ],
      [
       -77.0505520930151,
       38.87198205693706
      ],
      [
       -77.05156605814906,
       38.873580944535945
      ],
      [
       -77.05154291786592,
       38.87658697574198
      ],
      [
       -77.054202998596,
       38.87976902752403
      ],
      [
       -77.0563319046449,
       38.88039796415297
      ],
      [
       -77.05790691646192,
       38.88025706601207
      ],
      [
       -77.05920003755703,
       38.88098503974004
      ],
      [
       -77.06418108868608,
       38.88883306618807
      ],
      [
       -77.06441796103896,
       38.8895349022899
      ],
      [
       -77.06377297823798,
       38.89018997654498
      ],
      [
       -77.06464305288405,
       38.891714943669946
      ],
      [
       -77.06515697753598,
       38.89360502076002
      ],
      [
       -77.06722403591904,
       38.897160963115965
      ],
      [
       -77.06774195752895,
       38.89953499469
      ],
      [
       -77.06892106013807,
       38.90046492241993
      ],
      [
       -77.07058295319996,
       38.90117798953299
      ],
      [
       -77.07339996712297,
       38.90112796048297
      ],
      [
       -77.07699491529192,
       38.902095052650054
      ],
      [
       -77.07925193436293,
       38.90245893741394
      ],
      [
       -77.08259002538902,
       38.902290063845065
      ],
      [
       -77.086574992512,
       38.90301293256793
      ],
      [
       -77.09093693588393,
       38.9047128992679
      ],
      [
       -77.0935419006669,
       38.90593503749004
      ],
      [
       -77.10305297776998,
       38.91275205710706
      ],
      [
       -77.10424806821106,
       38.91613606289106
      ],
      [
       -77.10558704914006,
       38.917629991584995
      ],
      [
       -77.1057340951211,
       38.91830201445702
      ],
      [
       -77.10708906388207,
       38.92016493291994
      ],
      [
       -77.11141692792793,
       38.923838086193086
      ],
      [
       -77.11265893003393,
       38.92465692901193
      ],
      [
       -77.11484105873406,
       38.927298054453054
      ],
      [
       -77.11595705148005,
       38.92816508852009
      ],
      [
       -77.11646592734293,
       38.929631041786045
      ],
      [
       -77.119751006084,
       38.93434990430491
      ]
     ]
    ]
   }
  }
 ]
}
